{"_default": {"1": {"place_name": "\ud64d\ub9c8\ud2b8 \ubaa8\uc2ac\ud3ec\uc810", "x": 126.252430900737, "y": 33.2195372853097}, "2": {"place_name": "\uc6b0\ub9ac\ub4e4\ub9c8\ud2b8", "x": 126.24822372555504, "y": 33.22883101022313}, "3": {"place_name": "\ucf00\uc774\ub9c8\ud2b8", "x": 126.25403209158829, "y": 33.22551558028207}, "4": {"place_name": "\ubc27\ub370\ub9ac&\ud0c0\uc774\uc5b4\ub9c8\ud2b8", "x": 126.2515070063583, "y": 33.22889498716455}, "5": {"place_name": "\uc815\ub9c8\ud2b8 \ucf54\uc0ac\ub9c8\ud2b8", "x": 126.255478251691, "y": 33.2234793831102}, "6": {"place_name": "\ud64d\ub9c8\ud2b8\uc55e\uc8fc\ucc28\uc7a5", "x": 126.252420360206, "y": 33.2192631312306}, "7": {"place_name": "\ud64d\ub9c8\ud2b8\uc55e \uacf5\uc601\uc8fc\ucc28\uc7a5", "x": 126.251824711302, "y": 33.2196778998365}, "8": {"place_name": "\uc6b0\ub9ac\ub4e4\ub9c8\ud2b8 \uc8fc\ucc28\uc7a5", "x": 126.24820809888, "y": 33.2291527914787}, "9": {"place_name": "CU \ub300\uc815\ud558\ubaa8\ub9ac\uc810", "x": 126.25181332573885, "y": 33.22025937250717}, "10": {"place_name": "CU \ubaa8\uc2ac\ud3ec\uc810", "x": 126.25673627376, "y": 33.2254163589848}, "11": {"place_name": "\ubaa8\uc2ac\ud3ec\uc218\ud611 \ubc14\ub2e4\ub9c8\ud2b8", "x": 126.25849633171606, "y": 33.210068751339094}, "12": {"place_name": "\ub300\uc815\ub18d\ud611 \ud558\ub098\ub85c\ub9c8\ud2b8", "x": 126.26419905450666, "y": 33.23404408397046}, "13": {"place_name": "\uc81c\uc8fc\uc548\ub355\ub18d\ud611\ud558\ub098\ub85c\ub9c8\ud2b8&\ub85c\uceec\ud478\ub4dc\uc9c1\ub9e4\uc7a5 \uc81c\uc8fc1\ud638\uc810", "x": 126.33329872601333, "y": 33.24665595534223}, "14": {"place_name": "\uc548\ub355\ub18d\ud611\ud558\ub098\ub85c\ub9c8\ud2b8 \uc0ac\uacc4\uc9c0\uc810", "x": 126.2919271747374, "y": 33.23084739348255}, "15": {"place_name": "\ud64d\ub9c8\ud2b8 \ubaa8\uc2ac\ud3ec\uc810", "x": 126.252430900737, "y": 33.2195372853097}, "16": {"place_name": "\uc6b0\ub9ac\ub4e4\ub9c8\ud2b8", "x": 126.24822372555504, "y": 33.22883101022313}, "17": {"place_name": "\ud574\uac00\ub9c8\ud2b8", "x": 126.32261747241982, "y": 33.2497692207707}, "18": {"place_name": "\ub09c\ub4dc\ub974\uc0bc\uac70\ub9ac\ub9c8\ud2b8", "x": 126.36582350809, "y": 33.2348597566879}, "19": {"place_name": "\ucf00\uc774\ub9c8\ud2b8", "x": 126.25403209158829, "y": 33.22551558028207}, "20": {"place_name": "\ud6a8\uc7ac\ub9c8\ud2b8\ub85c\ub610\uba85\ub2f9", "x": 126.311521849163, "y": 33.233782148868}, "21": {"place_name": "\ubc27\ub370\ub9ac&\ud0c0\uc774\uc5b4\ub9c8\ud2b8", "x": 126.2515070063583, "y": 33.22889498716455}, "22": {"place_name": "\ub3d9\uc591\uc6d4\ub4dc\ub9c8\ud2b8 \ud654\uc21c\uc810", "x": 126.33610559135, "y": 33.2472443985989}, "23": {"place_name": "\uc815\ub9c8\ud2b8 \ucf54\uc0ac\ub9c8\ud2b8", "x": 126.255478251691, "y": 33.2234793831102}, "24": {"place_name": "\uc81c\uc8fc\uc548\ub355\ub18d\ud611\ud558\ub098\ub85c\ub9c8\ud2b8 \uc8fc\ucc28\uc7a5", "x": 126.333407016117, "y": 33.2465258013718}, "25": {"place_name": "\ucf54\uc0ac\ub9c8\ud2b8\ud574\ubcc0\uc810", "x": 126.333338539232, "y": 33.2408461478938}, "26": {"place_name": "\uc0c8\uc0dd\ud65c\ub9c8\ud2b8", "x": 126.277139829539, "y": 33.2478713625904}, "27": {"place_name": "\ud64d\ub9c8\ud2b8\uc55e\uc8fc\ucc28\uc7a5", "x": 126.252420360206, "y": 33.2192631312306}, "28": {"place_name": "\ud5a5\ud734\uac8c\ub9c8\ud2b8", "x": 126.27559914833093, "y": 33.24615744933678}, "29": {"place_name": "\ud64d\ub9c8\ud2b8\uc55e \uacf5\uc601\uc8fc\ucc28\uc7a5", "x": 126.251824711302, "y": 33.2196778998365}, "30": {"place_name": "\ub300\uc815\ub18d\ud611\ud558\ub098\ub85c\ub9c8\ud2b8 \uc8fc\ucc28\uc7a5", "x": 126.264531803769, "y": 33.2337683549226}, "31": {"place_name": "\uc6b0\ub9ac\ub4e4\ub9c8\ud2b8 \uc8fc\ucc28\uc7a5", "x": 126.24820809888, "y": 33.2291527914787}, "32": {"place_name": "\uc9c4\ub3d9\uc0b0\ub9c8\ud2b8", "x": 126.260573982954, "y": 33.2216632667714}, "33": {"place_name": "\ub300\uc815\ub18d\ud611 \ud558\ub098\ub85c\ub9c8\ud2b8 \uc804\uae30\ucc28\ucda9\uc804\uc18c", "x": 126.26419128594814, "y": 33.23356257656547}, "34": {"place_name": "\uc548\ub355\ub18d\ud611 \ud558\ub098\ub85c\ub9c8\ud2b8 \uc804\uae30\ucc28\ucda9\uc804\uc18c", "x": 126.33332449115035, "y": 33.246654290223695}, "35": {"place_name": "\ubc15\ucca0\uc6b0\ubd80\ub3d9\uc0b0\ub9c8\ud2b8 \uacf5\uc778\uc911\uac1c\uc0ac\uc0ac\ubb34\uc18c", "x": 126.34383103495267, "y": 33.25490225716656}, "36": {"place_name": "CU \uc81c\uc8fc\uc1a1\uc545\uc0b0\uc810", "x": 126.291036058536, "y": 33.2076563242412}, "37": {"place_name": "CU \ub300\uc815\ud558\ubaa8\ub9ac\uc810", "x": 126.25181332573885, "y": 33.22025937250717}, "38": {"place_name": "CU \uc81c\uc8fc\ud654\uc21c\uc810", "x": 126.335317479223, "y": 33.2464611921148}, "39": {"place_name": "CU \ubaa8\uc2ac\ud3ec\uc810", "x": 126.25673627376, "y": 33.2254163589848}, "40": {"place_name": "\ubaa8\uc2ac\ud3ec\uc218\ud611 \ubc14\ub2e4\ub9c8\ud2b8", "x": 126.25849633171606, "y": 33.210068751339094}, "41": {"place_name": "\ub124\uc774\ucc98\uceec\ub809\uc158 \uc81c\uc8fc\ub300\uc815\ud558\ub098\ub85c\ub9c8\ud2b8\uc810", "x": 126.264199054507, "y": 33.2340440839705}, "42": {"place_name": "\uc774\ub9c8\ud2b8 \uc11c\uadc0\ud3ec\uc810", "x": 126.50920673074761, "y": 33.24835812463035}, "43": {"place_name": "\uc911\ubb38\ub18d\ud611\ud558\ub098\ub85c\ub9c8\ud2b8 \ubcf8\uc810", "x": 126.43041832783432, "y": 33.25093539168394}, "44": {"place_name": "\ud574\uc131\ub9c8\ud2b8", "x": 126.419734281243, "y": 33.2542517542524}, "45": {"place_name": "\uc2a4\ud0c0\uc6d4\ub4dc\ub9c8\ud2b8 \uc911\ubb38\uc810", "x": 126.427329535566, "y": 33.2546259726527}, "46": {"place_name": "\uc2a4\ud0c0\uc6d4\ub4dc\uc2dd\uc790\uc7ac\ub9c8\ud2b8", "x": 126.504647335832, "y": 33.2529203143894}, "47": {"place_name": "\uc911\ubb38\ub09a\uc2dc\ub9c8\ud2b8", "x": 126.433986338055, "y": 33.2514322469473}, "48": {"place_name": "\ub09c\ub4dc\ub974\uc0bc\uac70\ub9ac\ub9c8\ud2b8", "x": 126.36582350809, "y": 33.2348597566879}, "49": {"place_name": "\ud574\uc131\uc815\uc721\ub9c8\ud2b8", "x": 126.42092285066, "y": 33.2523674953132}, "50": {"place_name": "E-\ub9c8\ud2b8", "x": 126.509115623912, "y": 33.2483397325111}, "51": {"place_name": "\uc911\ubb38 \ucf54\uc0ac\ub9c8\ud2b8", "x": 126.426704450044, "y": 33.2517487210019}, "52": {"place_name": "\uac15\uc815\ucf54\uc0ac\ub9c8\ud2b8", "x": 126.479762146302, "y": 33.2358573011937}, "53": {"place_name": "\uc911\ubb38\ub18d\ud611\ud558\ub098\ub85c\ub9c8\ud2b8 \uc8fc\ucc28\uc7a5", "x": 126.430599249105, "y": 33.2508361400428}, "54": {"place_name": "\uc0c8\uc0dd\ud65c\ud560\uc778\ub9c8\ud2b8", "x": 126.506689438497, "y": 33.25311597012}, "55": {"place_name": "\uc6d0\uc815\ucf54\uc0ac\ub9c8\ud2b8", "x": 126.390559805619, "y": 33.2459976175283}, "56": {"place_name": "\ud3ab\ub9c8\ud2b8 \uc911\ubb38\uc810", "x": 126.44277223526643, "y": 33.25253223313215}, "57": {"place_name": "\uc608\ub798\ucf54\uc0ac\ub9c8\ud2b8", "x": 126.39097947856, "y": 33.2467534282892}, "58": {"place_name": "\ud3ab\ub9c8\ud2b8 \uc11c\uadc0\ud3ec\ud601\uc2e0\uc810", "x": 126.50708547515877, "y": 33.24832719481864}, "59": {"place_name": "\ud0b9\ub9c8\ud2b8\ubd84\uc2dd", "x": 126.42119527831845, "y": 33.25238859924124}, "60": {"place_name": "\uad00\uad11\ud3b8\uc758\ub9c8\ud2b8", "x": 126.413396343449, "y": 33.2494470314941}, "61": {"place_name": "\ub3c4\uc21c\ud560\uc778\ub9c8\ud2b8", "x": 126.474336552998, "y": 33.2525181860394}, "62": {"place_name": "\uacbd\uc9c4\ub9c8\ud2b8", "x": 126.476130458394, "y": 33.2367436872009}, "63": {"place_name": "\uc0bc\ub2e4\ub18d\uc218\uc0b0\ud1a0\uc0b0\ud488\ud560\uc778\ub9c8\ud2b8", "x": 126.489613506849, "y": 33.2347512403528}, "64": {"place_name": "\ud558\uc6d0\uc625\ub3d4\ub9c8\ud2b8", "x": 126.456896209935, "y": 33.2539507595708}, "65": {"place_name": "\uc62c\ub808\ucf54\uc0ac\ub9c8\ud2b8", "x": 126.477561341425, "y": 33.2364467582338}, "66": {"place_name": "3\ubd84\ub9c8\ud2b8 \uae00\ub798\uc988\ud558\uc784\ud638\ud154\uc810", "x": 126.497921801474, "y": 33.236654128329}, "67": {"place_name": "\ud558\ub3d9\ucf54\uc0ac\ub9c8\ud2b8", "x": 126.461056526587, "y": 33.2545026206591}, "68": {"place_name": "3\ubd84\ub9c8\ud2b8 \uc36c\ub77c\uc774\uc988\ud638\ud154\uc911\ubb38\uc810", "x": 126.430551964119, "y": 33.2475377865344}, "69": {"place_name": "CU \uc11c\uadc0\ud3ec\uac15\uc815\uc810", "x": 126.505502271996, "y": 33.2512647231839}, "70": {"place_name": "CU \uac15\uc815\ub9c8\uc744\uc810", "x": 126.47863103003881, "y": 33.23608518542508}, "71": {"place_name": "CU \uc81c\uc8fc\uc911\ubb38\uc810", "x": 126.42565660274948, "y": 33.25182683536333}, "72": {"place_name": "\ud574\uc131\ud39c\uc158", "x": 126.419840255282, "y": 33.2544542119292}, "73": {"place_name": "\ud55c\uacbd\ub18d\ud611\ud558\ub098\ub85c\ub9c8\ud2b8", "x": 126.19001166493885, "y": 33.346442570515386}, "74": {"place_name": "\uc81c\uc8fc\uace0\uc0b0\ub18d\ud611 \ud558\ub098\ub85c\ub9c8\ud2b8", "x": 126.17924394231471, "y": 33.300238249083186}, "75": {"place_name": "\ub300\uc815\ub18d\ud611\ud558\ub098\ub85c\ub9c8\ud2b8 \ubb34\ub989\uc810", "x": 126.20094537509875, "y": 33.271435609291444}, "76": {"place_name": "\ud55c\ub9bc\uc218\ud611\ub9c8\ud2b8", "x": 126.260137408448, "y": 33.4147330768992}, "77": {"place_name": "\ub2f9\uba40\ub9c8\ucf13(\ub9c8\ud2b8)", "x": 126.258234419687, "y": 33.3368962545779}, "78": {"place_name": "\uae08\uc131\ub9c8\ud2b8", "x": 126.178798675575, "y": 33.3011224781914}, "79": {"place_name": "\ud55c\uacbd\ub18d\ud611 \ud558\ub098\ub85c\ub9c8\ud2b8 \uc804\uae30\ucc28\ucda9\uc804\uc18c", "x": 126.19025468837188, "y": 33.3466479149619}, "80": {"place_name": "\ud55c\uacbd\ub18d\ud611 \ud558\ub098\ub85c\ub9c8\ud2b8 \uc804\uae30\ucc28\ucda9\uc804\uc18c", "x": 126.19041278284935, "y": 33.34662820915963}, "81": {"place_name": "\ud55c\uacbd\ub18d\ud611 \uc800\uccad\uc9c0\uc18c", "x": 126.256421423636, "y": 33.333975054983}, "82": {"place_name": "\ud55c\uacbd\ub18d\ud611 \uc870\uc218\uc9c0\uc810", "x": 126.22858748717093, "y": 33.336067406965626}, "83": {"place_name": "\uc81c\uc8fc\uc548\ub355\ub18d\ud611\ud558\ub098\ub85c\ub9c8\ud2b8&\ub85c\uceec\ud478\ub4dc\uc9c1\ub9e4\uc7a5 \uc81c\uc8fc1\ud638\uc810", "x": 126.33329872601333, "y": 33.24665595534223}, "84": {"place_name": "\ucf54\uc2a4\ud2b8\ucf54 \uc81c\uc8fc\uc810(2026\ub144 \uc608\uc815)", "x": 126.308531506826, "y": 33.3013657156922}, "85": {"place_name": "\ub9c8\ub9c8\ub730\ub9c8\ucf13", "x": 126.335682299496, "y": 33.3102323801462}, "86": {"place_name": "\uc5d0\ub4c0\uc2dc\ud2f0\ub9c8\ud2b8", "x": 126.27615869663967, "y": 33.27940397068409}, "87": {"place_name": "\ub9c8\ucf13\uc624\ub9ac\uc9c4", "x": 126.277383750267, "y": 33.280541714145784}, "88": {"place_name": "\uad7f\ubaa8\ub2dd\ub9c8\ud2b8", "x": 126.270531373079, "y": 33.3184141532326}, "89": {"place_name": "\ud574\uac00\ub9c8\ud2b8", "x": 126.32261747241982, "y": 33.2497692207707}, "90": {"place_name": "\ub2f9\uba40\ub9c8\ucf13(\ub9c8\ud2b8)", "x": 126.258234419687, "y": 33.3368962545779}, "91": {"place_name": "\ub3d9\uc591\uc6d4\ub4dc\ub9c8\ud2b8 \ud654\uc21c\uc810", "x": 126.33610559135, "y": 33.2472443985989}, "92": {"place_name": "\uc81c\uc8fc\uc548\ub355\ub18d\ud611\ud558\ub098\ub85c\ub9c8\ud2b8 \uc8fc\ucc28\uc7a5", "x": 126.333407016117, "y": 33.2465258013718}, "93": {"place_name": "\ucf54\uc0ac\ub9c8\ud2b8\ud574\ubcc0\uc810", "x": 126.333338539232, "y": 33.2408461478938}, "94": {"place_name": "\uc0c8\uc0dd\ud65c\ub9c8\ud2b8", "x": 126.277139829539, "y": 33.2478713625904}, "95": {"place_name": "\ud5a5\ud734\uac8c\ub9c8\ud2b8", "x": 126.27559914833093, "y": 33.24615744933678}, "96": {"place_name": "\uc548\ub355\ub18d\ud611 \ud558\ub098\ub85c\ub9c8\ud2b8 \uc804\uae30\ucc28\ucda9\uc804\uc18c", "x": 126.33332449115035, "y": 33.246654290223695}, "97": {"place_name": "\ubc15\ucca0\uc6b0\ubd80\ub3d9\uc0b0\ub9c8\ud2b8 \uacf5\uc778\uc911\uac1c\uc0ac\uc0ac\ubb34\uc18c", "x": 126.34383103495267, "y": 33.25490225716656}, "98": {"place_name": "\ud55c\uacbd\ub18d\ud611 \uc800\uccad\uc9c0\uc18c", "x": 126.256421423636, "y": 33.333975054983}, "99": {"place_name": "CU \uc81c\uc8fc\ud654\uc21c\uc810", "x": 126.335317479223, "y": 33.2464611921148}, "100": {"place_name": "\uc774\ub9c8\ud2b8 \uc11c\uadc0\ud3ec\uc810", "x": 126.50920673074761, "y": 33.24835812463035}, "101": {"place_name": "\uc911\ubb38\ub18d\ud611\ud558\ub098\ub85c\ub9c8\ud2b8 \ubcf8\uc810", "x": 126.43041832783432, "y": 33.25093539168394}, "102": {"place_name": "\ud574\uc131\ub9c8\ud2b8", "x": 126.419734281243, "y": 33.2542517542524}, "103": {"place_name": "\uc2a4\ud0c0\uc6d4\ub4dc\ub9c8\ud2b8 \uc911\ubb38\uc810", "x": 126.427329535566, "y": 33.2546259726527}, "104": {"place_name": "\uc2a4\ud0c0\uc6d4\ub4dc\uc2dd\uc790\uc7ac\ub9c8\ud2b8", "x": 126.504647335832, "y": 33.2529203143894}, "105": {"place_name": "\uc911\ubb38\ub09a\uc2dc\ub9c8\ud2b8", "x": 126.433986338055, "y": 33.2514322469473}, "106": {"place_name": "\ud574\uc131\uc815\uc721\ub9c8\ud2b8", "x": 126.42092285066, "y": 33.2523674953132}, "107": {"place_name": "E-\ub9c8\ud2b8", "x": 126.509115623912, "y": 33.2483397325111}, "108": {"place_name": "\uc911\ubb38 \ucf54\uc0ac\ub9c8\ud2b8", "x": 126.426704450044, "y": 33.2517487210019}, "109": {"place_name": "\uc911\ubb38\ub18d\ud611\ud558\ub098\ub85c\ub9c8\ud2b8 \uc8fc\ucc28\uc7a5", "x": 126.430599249105, "y": 33.2508361400428}, "110": {"place_name": "\uc0c8\uc0dd\ud65c\ud560\uc778\ub9c8\ud2b8", "x": 126.506689438497, "y": 33.25311597012}, "111": {"place_name": "\uc6d0\uc815\ucf54\uc0ac\ub9c8\ud2b8", "x": 126.390559805619, "y": 33.2459976175283}, "112": {"place_name": "\ubbfc\uc6b0\ucf54\uc0ac\ub9c8\ud2b8", "x": 126.510131186216, "y": 33.250951243762}, "113": {"place_name": "\ud3ab\ub9c8\ud2b8 \uc911\ubb38\uc810", "x": 126.44277223526643, "y": 33.25253223313215}, "114": {"place_name": "\uc608\ub798\ucf54\uc0ac\ub9c8\ud2b8", "x": 126.39097947856, "y": 33.2467534282892}, "115": {"place_name": "\ud3ab\ub9c8\ud2b8 \uc11c\uadc0\ud3ec\ud601\uc2e0\uc810", "x": 126.50708547515877, "y": 33.24832719481864}, "116": {"place_name": "\ud0b9\ub9c8\ud2b8\ubd84\uc2dd", "x": 126.42119527831845, "y": 33.25238859924124}, "117": {"place_name": "\uad00\uad11\ud3b8\uc758\ub9c8\ud2b8", "x": 126.413396343449, "y": 33.2494470314941}, "118": {"place_name": "\ub3c4\uc21c\ud560\uc778\ub9c8\ud2b8", "x": 126.474336552998, "y": 33.2525181860394}, "119": {"place_name": "\ub85c\ub4dc\ub79c\ub4dc\ubbf8\ub2c8\ub9c8\ud2b8", "x": 126.385663279086, "y": 33.348209249742}, "120": {"place_name": "\ud558\uc6d0\uc625\ub3d4\ub9c8\ud2b8", "x": 126.456896209935, "y": 33.2539507595708}, "121": {"place_name": "\ud558\ub3d9\ucf54\uc0ac\ub9c8\ud2b8", "x": 126.461056526587, "y": 33.2545026206591}, "122": {"place_name": "3\ubd84\ub9c8\ud2b8 \uc36c\ub77c\uc774\uc988\ud638\ud154\uc911\ubb38\uc810", "x": 126.430551964119, "y": 33.2475377865344}, "123": {"place_name": "CU \uc11c\uadc0\ud3ec\uac15\uc815\uc810", "x": 126.505502271996, "y": 33.2512647231839}, "124": {"place_name": "CU \uc81c\uc8fc\uc911\ubb38\uc810", "x": 126.42565660274948, "y": 33.25182683536333}, "125": {"place_name": "\ud574\uc131\ud39c\uc158", "x": 126.419840255282, "y": 33.2544542119292}, "126": {"place_name": "\uc81c\uc8fc\ud55c\ub9bc\ub18d\ud611\ud558\ub098\ub85c\ub9c8\ud2b8", "x": 126.26388654855646, "y": 33.40997696528563}, "127": {"place_name": "\uc560\uc6d4\ub18d\ud611\ud558\ub098\ub85c\ub9c8\ud2b8", "x": 126.32233635293835, "y": 33.46049333250818}, "128": {"place_name": "\uc560\uc6d4\ub18d\ud611 \ud558\ub098\ub85c\ub9c8\ud2b8 \ubd09\uc131\uc810", "x": 126.312171663527, "y": 33.4190427679423}, "129": {"place_name": "\uc88b\uc740\ub9c8\ud2b8 \uc560\uc6d4\uc810", "x": 126.36544719006, "y": 33.4711348251034}, "130": {"place_name": "\ud55c\ub9bc\ub9c8\ud2b8", "x": 126.263359305858, "y": 33.408506050524}, "131": {"place_name": "\ubc14\ub2e4\uc288\ud37c", "x": 126.36640440059244, "y": 33.47545381318589}, "132": {"place_name": "\ud55c\ub9bc\uc218\ud611\ub9c8\ud2b8", "x": 126.260137408448, "y": 33.4147330768992}, "133": {"place_name": "\uacfd\uc9c0\ub9c8\ud2b8", "x": 126.30589111307621, "y": 33.44735911892851}, "134": {"place_name": "\ud55c\ub9bc\ud0b9\ub9c8\ud2b8", "x": 126.265947119984, "y": 33.4229107223691}, "135": {"place_name": "\uc560\uc6d4\uc218\uc0b0\ub9c8\ud2b8", "x": 126.33187150890927, "y": 33.46742328223356}, "136": {"place_name": "\ud55c\ub9bc\ud56d\uc815\uc721\ub9c8\ud2b8\uc2dd\ub2f9", "x": 126.263460069592, "y": 33.4169455083936}, "137": {"place_name": "\ud55c\uc218\uc704\ub9c8\ud2b8", "x": 126.261491011291, "y": 33.4161205704497}, "138": {"place_name": "\uc218\uc601\ucf54\uc0ac\ub9c8\ud2b8", "x": 126.37342129895613, "y": 33.47317060236971}, "139": {"place_name": "\uc560\uc6d4\ubb3c\ub958\ub9c8\ud2b8", "x": 126.3203299928843, "y": 33.466703349721925}, "140": {"place_name": "\ud64d\ub9c8\ud2b8 \ud55c\ub9bc\uc810", "x": 126.264787553753, "y": 33.4120018648815}, "141": {"place_name": "\uc81c\uc8fc\ud55c\ub9bc\ub18d\ud611\ud558\ub098\ub85c\ub9c8\ud2b8 \uc8fc\ucc28\uc7a5", "x": 126.263880007508, "y": 33.4099877455315}, "142": {"place_name": "\uc560\uc6d4\ub18d\ud611\ud558\ub098\ub85c\ub9c8\ud2b8 \uc8fc\ucc28\uc7a5", "x": 126.32188053171, "y": 33.4600463585331}, "143": {"place_name": "\ud55c\ub77c\ub9c8\ud2b8", "x": 126.262500442383, "y": 33.4139681759687}, "144": {"place_name": "\ud574\uc591\ub9c8\ud2b8", "x": 126.26242097158077, "y": 33.415229925607214}, "145": {"place_name": "\ud558\ub9bc\uac74\uc7ac\ub9c8\ud2b8", "x": 126.267137972841, "y": 33.4070930994625}, "146": {"place_name": "\uc560\uc6d4\ub18d\ud611 \ud558\ub098\ub85c\ub9c8\ud2b8 \uc804\uae30\ucc28\ucda9\uc804\uc18c", "x": 126.32190549309473, "y": 33.460432373552806}, "147": {"place_name": "\uc0bc\uc815\uc885\ud569\uc288\ud37c\ub9c8\ud2b8", "x": 126.373549703531, "y": 33.4732668196209}, "148": {"place_name": "\uc804\ub0a8\uc778\ud14c\ub9ac\uc5b4\ud560\uc778\ub9c8\ud2b8", "x": 126.264468144855, "y": 33.4157145120347}, "149": {"place_name": "\ucc9c\ub0e5\ud558\uc6b0\uc2a4\ub514\uc528\ub9c8\ud2b8", "x": 126.264835389002, "y": 33.4155111270227}, "150": {"place_name": "CU \uc81c\uc8fc\uc560\uc6d4\uc810", "x": 126.320473836191, "y": 33.4645646120901}, "151": {"place_name": "CU \ud55c\ub9bc\uc81c\uc77c\uc810", "x": 126.263682935964, "y": 33.4144873016603}, "152": {"place_name": "CU \uc81c\uc8fc\ud55c\ub9bc\ud56d\uc810", "x": 126.263409099451, "y": 33.4163609773791}, "153": {"place_name": "CU \uc81c\uc8fc\ud55c\ub9bc\uc810", "x": 126.26501425450438, "y": 33.416867272429286}, "154": {"place_name": "\ube7d\ub2e4\ubc29 \uc81c\uc8fc\uc560\uc6d4\uc88b\uc740\ub9c8\ud2b8\uc810", "x": 126.3658602565048, "y": 33.47099178352053}, "155": {"place_name": "\uc81c\uc8fc\uc5f4\uc1e0\ub3c4\uc5b4\ub77d \uc790\ub3d9\ucc28\ud0a4\uc2a4\ub9c8\ud2b8\ud0a4\ud3f4\ub529\ud0a4\uc218\uc785\ucc28\ud0a4\uc81c\uc791", "x": 126.264601528878, "y": 33.4104761772291}, "156": {"place_name": "\ud558\uadc0\ub18d\ud611\ud558\ub098\ub85c\ub9c8\ud2b8", "x": 126.41213574702876, "y": 33.4850628812185}, "157": {"place_name": "\uc88b\uc740\ub9c8\ud2b8 \uc560\uc6d4\uc810", "x": 126.36544719006, "y": 33.4711348251034}, "158": {"place_name": "\ud55c\uad6d\ubb3c\ub958 1\ud638\uc810", "x": 126.431269072213, "y": 33.4899053392525}, "159": {"place_name": "\ubc14\ub2e4\uc288\ud37c", "x": 126.36640440059244, "y": 33.47545381318589}, "160": {"place_name": "\ud06c\ub77c\uc6b4\ub9c8\ud2b8", "x": 126.431128779656, "y": 33.4843725466606}, "161": {"place_name": "\uad11\ub839\ub9c8\ud2b8", "x": 126.438161379125, "y": 33.4610065314293}, "162": {"place_name": "\uc2dc\ud2f0\ub9c8\ud2b8", "x": 126.434048991716, "y": 33.4879994856649}, "163": {"place_name": "\uc9c4\uc601\ub9c8\ud2b8 \uc678\ub3c4\uc810", "x": 126.43238282751592, "y": 33.48610033186451}, "164": {"place_name": "\ubb34\uc218\ucc9c\ub9c8\ud2b8", "x": 126.444437386269, "y": 33.4607454033194}, "165": {"place_name": "\uc81c\uc774\ub9c8\ud2b8 \ud558\uadc0", "x": 126.415266994535, "y": 33.482629882716}, "166": {"place_name": "\uadf8\ub9b0\ub9c8\ud2b8", "x": 126.401133685226, "y": 33.4808989654601}, "167": {"place_name": "\uc218\uc601\ucf54\uc0ac\ub9c8\ud2b8", "x": 126.37342129895613, "y": 33.47317060236971}, "168": {"place_name": "\uadf8\ub9b0\ub9c8\ud2b8 \uc678\ub3c4\uc810", "x": 126.432433002473, "y": 33.4863259589101}, "169": {"place_name": "\ud50c\ub7ec\uc2a4\ub9c8\ud2b8", "x": 126.446127041423, "y": 33.4817465325491}, "170": {"place_name": "\ud3ab\ub9c8\ud2b8 \uc81c\uc8fc\ud558\uadc0\uc810", "x": 126.415332739157, "y": 33.4826130627072}, "171": {"place_name": "\uc2e0\ubc1c\ub9c8\ud2b8", "x": 126.4312345699, "y": 33.4899159999615}, "172": {"place_name": "\ucf69\ub9c8\ud2b8", "x": 126.432477400678, "y": 33.4894168084376}, "173": {"place_name": "\ub6b1\ub3fc\uc9c0\uc218\uc0b0\ub9c8\ud2b8", "x": 126.431102804721, "y": 33.4909783677112}, "174": {"place_name": "\uc218\uc0b0\ub9c8\ud2b8", "x": 126.393293264878, "y": 33.4679753341154}, "175": {"place_name": "\ud558\uadc0\ub18d\ud611\ud558\ub098\ub85c\ub9c8\ud2b8 \uc8fc\ucc28\uc7a5", "x": 126.411473856235, "y": 33.4849299111083}, "176": {"place_name": "\uc81c\uc8fc \ud558\uadc0\ud558\ub098\ub85c\ub9c8\ud2b8 E-pit \uc804\uae30\ucc28\ucda9\uc804\uc18c", "x": 126.41068985471158, "y": 33.48455743609867}, "177": {"place_name": "\ucc29\ud55c\uc81c\uc8fc\ub9c8\ud2b8", "x": 126.433518944124, "y": 33.4933885624749}, "178": {"place_name": "\ud06c\ub77c\uc6b4\ub9c8\ud2b8 \uc8fc\ucc28\uc7a5", "x": 126.431111638363, "y": 33.4841966580885}, "179": {"place_name": "\uc0bc\uc815\uc885\ud569\uc288\ud37c\ub9c8\ud2b8", "x": 126.373549703531, "y": 33.4732668196209}, "180": {"place_name": "\ud06c\ub77c\uc6b4\ub9c8\ud2b8 \ubca0\uc774\ucee4\ub9ac", "x": 126.431137387005, "y": 33.4843725861698}, "181": {"place_name": "\ud558\uadc0\ub18d\ud611\ud558\ub098\ub85c\ub9c8\ud2b8 \ud558\ub098\ub85c\ubd81\uce74\ud398", "x": 126.412152986168, "y": 33.48505935664}, "182": {"place_name": "CU \uc81c\uc8fc\uc544\ub984\uc810", "x": 126.428181797068, "y": 33.4848566614535}, "183": {"place_name": "CU \uc678\ub3c4\uc77c\uc8fc\uc810", "x": 126.423768628492, "y": 33.4922689127293}, "184": {"place_name": "CU \uc81c\uc8fc\uc678\ub3c4\ubd80\uc601\uc810", "x": 126.432427641099, "y": 33.4858282572303}, "185": {"place_name": "CU \uc81c\uc8fc\ud558\uadc0\uc8fc\uacf5\uc810", "x": 126.414115950116, "y": 33.481801296428}, "186": {"place_name": "CU \ud558\uadc0\ub300\uc131\uc810", "x": 126.404844482461, "y": 33.4813712408473}, "187": {"place_name": "\ube7d\ub2e4\ubc29 \uc81c\uc8fc\uc560\uc6d4\uc88b\uc740\ub9c8\ud2b8\uc810", "x": 126.3658602565048, "y": 33.47099178352053}, "188": {"place_name": "\ub124\uc774\ucc98\uceec\ub809\uc158 \uc81c\uc8fc\ud558\uadc0\ud558\ub098\ub85c\ub9c8\ud2b8\uc810", "x": 126.412157289862, "y": 33.485059377054}, "189": {"place_name": "\uad11\ub839\ub9c8\ud2b8", "x": 126.438161379125, "y": 33.4610065314293}, "190": {"place_name": "\ud3c9\ud654\ub85c\ud734\uac8c\uc18c\ub9c8\ud2b8", "x": 126.4494193617647, "y": 33.46201272945493}, "191": {"place_name": "\ubb34\uc218\ucc9c\ub9c8\ud2b8", "x": 126.444437386269, "y": 33.4607454033194}, "192": {"place_name": "\uc11c\ubd80\uad00\uad11\ud734\uac8c\ub9c8\ud2b8", "x": 126.45019366151833, "y": 33.462553515546176}, "193": {"place_name": "\uc2a4\uce74\uc774\ub9c8\ud2b8", "x": 126.45979282542, "y": 33.469700272499}, "194": {"place_name": "CU \uc11c\ubd80\uad00\uad11\uc810", "x": 126.451525276027, "y": 33.4630787318822}, "195": {"place_name": "CU \uc81c\uc8fc\ud55c\ub77c\uc544\ud2b8\ud640\uc810", "x": 126.47476317544934, "y": 33.47613526767355}, "196": {"place_name": "\uc81c\uc77c\ub9c8\ud2b8", "x": 126.480869914836, "y": 33.4761014899272}, "197": {"place_name": "EK\ubca0\uc774\ud0b9 \uc2dd\uc790\uc7ac\ub9c8\ud2b8", "x": 126.48569902842243, "y": 33.46888272283965}, "198": {"place_name": "\ub2e4\ubaa8\uc544\ub9c8\ud2b8 \uc815\uc2e4\uc810", "x": 126.50778100412266, "y": 33.47234884745469}, "199": {"place_name": "\uc2a4\uce74\uc774\ub9c8\ud2b8", "x": 126.45979282542, "y": 33.469700272499}, "200": {"place_name": "\uc774\uc88b\uc740\ub9c8\ud2b8", "x": 126.47958900134357, "y": 33.477289827744194}, "201": {"place_name": "\ud558\ub098\ucd95\uc0b0\ub9c8\ud2b8", "x": 126.491058100811, "y": 33.477964961838}, "202": {"place_name": "\uc608\uc2a4\ub9c8\ud2b8", "x": 126.48881776456244, "y": 33.47729397262608}, "203": {"place_name": "\ucc3d\uace0\ud615\uac00\uc804\ub9c8\ud2b8", "x": 126.504437745197, "y": 33.4651047292677}, "204": {"place_name": "\uc778\ud321\ud558\uc774\ube0c\ub9ac\ub4dc\ub9c8\ud2b8 \uc81c\uc8fc", "x": 126.4912233863984, "y": 33.475640430110786}, "205": {"place_name": "\uc81c\uc77c\ub9c8\ud2b8\ub0b4 \ubc18\ucc2c\ucf54\ub108", "x": 126.48086141577139, "y": 33.476083422464356}, "206": {"place_name": "CU \uc81c\uc8fc\uc5f0\ud654\uc810", "x": 126.490286926396, "y": 33.4781096541622}, "207": {"place_name": "CU \uc81c\uc8fc\uacfc\uc6d0\uc810", "x": 126.486391053246, "y": 33.4761244912237}, "208": {"place_name": "CU \uc911\ud765S\uc810", "x": 126.48182510237461, "y": 33.476491368811104}, "209": {"place_name": "CU \uc81c\uc8fc\ud55c\ub77c\uc544\ud2b8\ud640\uc810", "x": 126.47476317544934, "y": 33.47613526767355}, "210": {"place_name": "\ud55c\uad6d\ubb3c\ub958 1\ud638\uc810", "x": 126.431269072213, "y": 33.4899053392525}, "211": {"place_name": "\ud06c\ub77c\uc6b4\ub9c8\ud2b8", "x": 126.431128779656, "y": 33.4843725466606}, "212": {"place_name": "\uad11\ub839\ub9c8\ud2b8", "x": 126.438161379125, "y": 33.4610065314293}, "213": {"place_name": "\uc2dc\ud2f0\ub9c8\ud2b8", "x": 126.434048991716, "y": 33.4879994856649}, "214": {"place_name": "\ud3c9\ud654\ub85c\ud734\uac8c\uc18c\ub9c8\ud2b8", "x": 126.4494193617647, "y": 33.46201272945493}, "215": {"place_name": "\uc9c4\uc601\ub9c8\ud2b8 \uc678\ub3c4\uc810", "x": 126.43238282751592, "y": 33.48610033186451}, "216": {"place_name": "\ubb34\uc218\ucc9c\ub9c8\ud2b8", "x": 126.444437386269, "y": 33.4607454033194}, "217": {"place_name": "\uc11c\ubd80\uad00\uad11\ud734\uac8c\ub9c8\ud2b8", "x": 126.45019366151833, "y": 33.462553515546176}, "218": {"place_name": "\uadf8\ub9b0\ub9c8\ud2b8 \uc678\ub3c4\uc810", "x": 126.432433002473, "y": 33.4863259589101}, "219": {"place_name": "\uc2a4\uce74\uc774\ub9c8\ud2b8", "x": 126.45979282542, "y": 33.469700272499}, "220": {"place_name": "\ud50c\ub7ec\uc2a4\ub9c8\ud2b8", "x": 126.446127041423, "y": 33.4817465325491}, "221": {"place_name": "\ub300\ub9bc\ub9c8\ud2b8", "x": 126.45958989081149, "y": 33.493895392156176}, "222": {"place_name": "\uc2e0\ubc1c\ub9c8\ud2b8", "x": 126.4312345699, "y": 33.4899159999615}, "223": {"place_name": "\ucf69\ub9c8\ud2b8", "x": 126.432477400678, "y": 33.4894168084376}, "224": {"place_name": "\uadf8\ub9b0\ub9c8\ud2b8 \uc774\ud638\uc810", "x": 126.459942117513, "y": 33.4934921140644}, "225": {"place_name": "\ub6b1\ub3fc\uc9c0\uc218\uc0b0\ub9c8\ud2b8", "x": 126.431102804721, "y": 33.4909783677112}, "226": {"place_name": "\ucc29\ud55c\uc81c\uc8fc\ub9c8\ud2b8", "x": 126.433518944124, "y": 33.4933885624749}, "227": {"place_name": "\ud06c\ub77c\uc6b4\ub9c8\ud2b8 \uc8fc\ucc28\uc7a5", "x": 126.431111638363, "y": 33.4841966580885}, "228": {"place_name": "\ud06c\ub77c\uc6b4\ub9c8\ud2b8 \ubca0\uc774\ucee4\ub9ac", "x": 126.431137387005, "y": 33.4843725861698}, "229": {"place_name": "CU \uc81c\uc8fc\uc544\ub984\uc810", "x": 126.428181797068, "y": 33.4848566614535}, "230": {"place_name": "CU \uc11c\ubd80\uad00\uad11\uc810", "x": 126.451525276027, "y": 33.4630787318822}, "231": {"place_name": "CU \uc81c\uc8fc\uc678\ub3c4\ubd80\uc601\uc810", "x": 126.432427641099, "y": 33.4858282572303}, "232": {"place_name": "\uc81c\uc8fc\uc2dc\ub18d\ud611 \ud558\ub098\ub85c\ub9c8\ud2b8 \ub178\ud615\uc810", "x": 126.46737290666142, "y": 33.48760172922706}, "233": {"place_name": "\ud669\uae08\ub9c8\ud2b8", "x": 126.472159076596, "y": 33.4854484708932}, "234": {"place_name": "\ubca0\uc2a4\ud2b8\ub9c8\ud2b8", "x": 126.471079622289, "y": 33.4831898897339}, "235": {"place_name": "\uadf8\ub9b0\ub9c8\ud2b8 \uc815\uc874\uc810", "x": 126.47270873505, "y": 33.4849423131584}, "236": {"place_name": "\ub178\ud615\ub85c\ub610\ub9c8\ud2b8", "x": 126.475302984915, "y": 33.488671486844}, "237": {"place_name": "\uc720\ub4dc\ub9bc\ub9c8\ud2b8", "x": 126.46690912527916, "y": 33.4844450679378}, "238": {"place_name": "\ud3c9\ud654\ub85c\ud734\uac8c\uc18c\ub9c8\ud2b8", "x": 126.4494193617647, "y": 33.46201272945493}, "239": {"place_name": "\uc81c\uc774\ub9c8\ud2b8", "x": 126.47520097210695, "y": 33.48560429182302}, "240": {"place_name": "\ubb34\uc218\ucc9c\ub9c8\ud2b8", "x": 126.444437386269, "y": 33.4607454033194}, "241": {"place_name": "\ud3ab\ub9c8\ud2b8 \uc81c\uc8fc\ub178\ud615\uc810", "x": 126.474838864753, "y": 33.4903356610707}, "242": {"place_name": "\uc11c\ubd80\uad00\uad11\ud734\uac8c\ub9c8\ud2b8", "x": 126.45019366151833, "y": 33.462553515546176}, "243": {"place_name": "\uc2a4\uce74\uc774\ub9c8\ud2b8", "x": 126.45979282542, "y": 33.469700272499}, "244": {"place_name": "\ub274\uc6d4\ub4dc\ub9c8\ud2b8 \ub178\ud615\uc810", "x": 126.47741257801064, "y": 33.48964330034504}, "245": {"place_name": "\ud50c\ub7ec\uc2a4\ub9c8\ud2b8", "x": 126.446127041423, "y": 33.4817465325491}, "246": {"place_name": "\ub300\ub9bc\ub9c8\ud2b8", "x": 126.45958989081149, "y": 33.493895392156176}, "247": {"place_name": "\uadf8\ub9b0\ub9c8\ud2b8 \uc774\ud638\uc810", "x": 126.459942117513, "y": 33.4934921140644}, "248": {"place_name": "\uc6d4\ub791 \uc0ac\ub791\ub9c8\ud2b8", "x": 126.47705980285, "y": 33.4921229904313}, "249": {"place_name": "\ub18d\ud611 \ud558\ub098\ub85c\ub9c8\ud2b8 \ub178\ud615\uc810 \uc804\uae30\ucc28\ucda9\uc804\uc18c", "x": 126.46826040782628, "y": 33.48833763225277}, "250": {"place_name": "\ud0a4\uce5c\ub9c8\ud2b8", "x": 126.472018766302, "y": 33.4929671412498}, "251": {"place_name": "\uc5ec\ud589\ub9c8\ud2b8 \uc5ec\ud589\uc0ac", "x": 126.472928136752, "y": 33.4835367634633}, "252": {"place_name": "\ub728\ub780\ucc44\ub9c8\ud2b8", "x": 126.472424397206, "y": 33.4864088938968}, "253": {"place_name": "CU \uc11c\ubd80\uad00\uad11\uc810", "x": 126.451525276027, "y": 33.4630787318822}, "254": {"place_name": "CU \uc81c\uc8fc\uc815\ub4e0\uc810", "x": 126.47505254824, "y": 33.4895179218552}, "255": {"place_name": "CU \ub178\ud615\ub300\ud654\uc810", "x": 126.473698478342, "y": 33.4821191283729}, "256": {"place_name": "CU \uc81c\uc8fc\ud55c\ub77c\uc544\ud2b8\ud640\uc810", "x": 126.47476317544934, "y": 33.47613526767355}, "257": {"place_name": "\ub098\ub4e4\uac00\uac8c \uc815\ub4e0\ub9c8\ud2b8", "x": 126.472139102392, "y": 33.4887409968971}, "258": {"place_name": "\uc2a4\ud3ec\uce20\ud1a0\ud1a0 \uc815\ub4e0\ub9c8\ud2b8\ubcf5\uad8c", "x": 126.472173304035, "y": 33.4887790093967}, "259": {"place_name": "\ub124\uc774\ucc98\uceec\ub809\uc158 \uc81c\uc8fc\ub178\ud615\ud558\ub098\ub85c\ub9c8\ud2b8\uc810", "x": 126.467355663624, "y": 33.4876061630705}, "260": {"place_name": "\ud55c\uad6d\ubb3c\ub958 1\ud638\uc810", "x": 126.431269072213, "y": 33.4899053392525}, "261": {"place_name": "\ud06c\ub77c\uc6b4\ub9c8\ud2b8", "x": 126.431128779656, "y": 33.4843725466606}, "262": {"place_name": "\uc2dc\ud2f0\ub9c8\ud2b8", "x": 126.434048991716, "y": 33.4879994856649}, "263": {"place_name": "\uc9c4\uc601\ub9c8\ud2b8 \uc678\ub3c4\uc810", "x": 126.43238282751592, "y": 33.48610033186451}, "264": {"place_name": "\uadf8\ub9b0\ub9c8\ud2b8 \uc678\ub3c4\uc810", "x": 126.432433002473, "y": 33.4863259589101}, "265": {"place_name": "\ud50c\ub7ec\uc2a4\ub9c8\ud2b8", "x": 126.446127041423, "y": 33.4817465325491}, "266": {"place_name": "\ubc14\uad6c\ub2c8\ub9c8\ud2b8", "x": 126.461983553509, "y": 33.4946874863328}, "267": {"place_name": "\ub300\ub9bc\ub9c8\ud2b8", "x": 126.45958989081149, "y": 33.493895392156176}, "268": {"place_name": "\uc2e0\ubc1c\ub9c8\ud2b8", "x": 126.4312345699, "y": 33.4899159999615}, "269": {"place_name": "\ucf69\ub9c8\ud2b8", "x": 126.432477400678, "y": 33.4894168084376}, "270": {"place_name": "\uadf8\ub9b0\ub9c8\ud2b8 \uc774\ud638\uc810", "x": 126.459942117513, "y": 33.4934921140644}, "271": {"place_name": "\ub6b1\ub3fc\uc9c0\uc218\uc0b0\ub9c8\ud2b8", "x": 126.431102804721, "y": 33.4909783677112}, "272": {"place_name": "\ucc29\ud55c\uc81c\uc8fc\ub9c8\ud2b8", "x": 126.433518944124, "y": 33.4933885624749}, "273": {"place_name": "\uac70\ub8e1\ub09a\uc2dc\ud560\uc778\ub9c8\ud2b8", "x": 126.461084055723, "y": 33.4953651791525}, "274": {"place_name": "\ud06c\ub77c\uc6b4\ub9c8\ud2b8 \uc8fc\ucc28\uc7a5", "x": 126.431111638363, "y": 33.4841966580885}, "275": {"place_name": "\ud06c\ub77c\uc6b4\ub9c8\ud2b8 \ubca0\uc774\ucee4\ub9ac", "x": 126.431137387005, "y": 33.4843725861698}, "276": {"place_name": "\ubc14\uad6c\ub2c8\ub9c8\ud2b8\uad6c\ub0b4", "x": 126.46196187633, "y": 33.4947126367176}, "277": {"place_name": "CU \uc81c\uc8fc\uc544\ub984\uc810", "x": 126.428181797068, "y": 33.4848566614535}, "278": {"place_name": "CU \uc81c\uc8fc\uc774\ud638\ud589\uc6b4\uc810", "x": 126.450393429511, "y": 33.4951451173661}, "279": {"place_name": "CU \uc81c\uc8fc\uc678\ub3c4\ubd80\uc601\uc810", "x": 126.432427641099, "y": 33.4858282572303}, "280": {"place_name": "\uc81c\uc8fc\uc2dc\ub18d\ud611 \ud558\ub098\ub85c\ub9c8\ud2b8 \ub178\ud615\uc810", "x": 126.46737290666142, "y": 33.48760172922706}, "281": {"place_name": "\ub9c8\ud2b8\ud074\ub7fd", "x": 126.466774540153, "y": 33.5030677306253}, "282": {"place_name": "\ud669\uae08\ub9c8\ud2b8", "x": 126.472159076596, "y": 33.4854484708932}, "283": {"place_name": "\ubca0\uc2a4\ud2b8\ub9c8\ud2b8", "x": 126.471079622289, "y": 33.4831898897339}, "284": {"place_name": "\uadf8\ub9b0\ub9c8\ud2b8 \uc815\uc874\uc810", "x": 126.47270873505, "y": 33.4849423131584}, "285": {"place_name": "\ub178\ud615\ub85c\ub610\ub9c8\ud2b8", "x": 126.475302984915, "y": 33.488671486844}, "286": {"place_name": "\uc720\ub4dc\ub9bc\ub9c8\ud2b8", "x": 126.46690912527916, "y": 33.4844450679378}, "287": {"place_name": "\uc81c\uc774\ub9c8\ud2b8", "x": 126.47520097210695, "y": 33.48560429182302}, "288": {"place_name": "\ud3ab\ub9c8\ud2b8 \uc81c\uc8fc\ub178\ud615\uc810", "x": 126.474838864753, "y": 33.4903356610707}, "289": {"place_name": "\ub274\uc6d4\ub4dc\ub9c8\ud2b8 \ub178\ud615\uc810", "x": 126.47741257801064, "y": 33.48964330034504}, "290": {"place_name": "\ud50c\ub7ec\uc2a4\ub9c8\ud2b8", "x": 126.446127041423, "y": 33.4817465325491}, "291": {"place_name": "\ubc14\uad6c\ub2c8\ub9c8\ud2b8", "x": 126.461983553509, "y": 33.4946874863328}, "292": {"place_name": "\ub300\ub9bc\ub9c8\ud2b8", "x": 126.45958989081149, "y": 33.493895392156176}, "293": {"place_name": "\uadf8\ub9b0\ub9c8\ud2b8 \uc774\ud638\uc810", "x": 126.459942117513, "y": 33.4934921140644}, "294": {"place_name": "\uc6d4\ub791 \uc0ac\ub791\ub9c8\ud2b8", "x": 126.47705980285, "y": 33.4921229904313}, "295": {"place_name": "\uac70\ub8e1\ub09a\uc2dc\ud560\uc778\ub9c8\ud2b8", "x": 126.461084055723, "y": 33.4953651791525}, "296": {"place_name": "\ub18d\ud611 \ud558\ub098\ub85c\ub9c8\ud2b8 \ub178\ud615\uc810 \uc804\uae30\ucc28\ucda9\uc804\uc18c", "x": 126.46826040782628, "y": 33.48833763225277}, "297": {"place_name": "\ud0a4\uce5c\ub9c8\ud2b8", "x": 126.472018766302, "y": 33.4929671412498}, "298": {"place_name": "\uc5ec\ud589\ub9c8\ud2b8 \uc5ec\ud589\uc0ac", "x": 126.472928136752, "y": 33.4835367634633}, "299": {"place_name": "\ubc14\uad6c\ub2c8\ub9c8\ud2b8\uad6c\ub0b4", "x": 126.46196187633, "y": 33.4947126367176}, "300": {"place_name": "\ub728\ub780\ucc44\ub9c8\ud2b8", "x": 126.472424397206, "y": 33.4864088938968}, "301": {"place_name": "CU \ub3c4\ub450\ud56d\uc810", "x": 126.466420089941, "y": 33.5040074630474}, "302": {"place_name": "CU \uc81c\uc8fc\uc774\ud638\ud589\uc6b4\uc810", "x": 126.450393429511, "y": 33.4951451173661}, "303": {"place_name": "CU \uc81c\uc8fc\uc815\ub4e0\uc810", "x": 126.47505254824, "y": 33.4895179218552}, "304": {"place_name": "CU \ub178\ud615\ub300\ud654\uc810", "x": 126.473698478342, "y": 33.4821191283729}, "305": {"place_name": "CU \uc81c\uc8fc\ud55c\ub77c\uc544\ud2b8\ud640\uc810", "x": 126.47476317544934, "y": 33.47613526767355}, "306": {"place_name": "\ub098\ub4e4\uac00\uac8c \uc815\ub4e0\ub9c8\ud2b8", "x": 126.472139102392, "y": 33.4887409968971}, "307": {"place_name": "\uae08\uac15\ucd95\uc0b0\uc720\ud1b5 \ucd95\uc0b0\ubb3c\ud560\uc778\ub9c8\ud2b8", "x": 126.46634210228707, "y": 33.50443988958604}, "308": {"place_name": "\uc2a4\ud3ec\uce20\ud1a0\ud1a0 \uc815\ub4e0\ub9c8\ud2b8\ubcf5\uad8c", "x": 126.472173304035, "y": 33.4887790093967}, "309": {"place_name": "\ub124\uc774\ucc98\uceec\ub809\uc158 \uc81c\uc8fc\ub178\ud615\ud558\ub098\ub85c\ub9c8\ud2b8\uc810", "x": 126.467355663624, "y": 33.4876061630705}, "310": {"place_name": "\ub098\ub4e4\uac00\uac8c \ucf54\uc0ac\ub9c8\ud2b8\ub3c4\ub450\uc810", "x": 126.465620507051, "y": 33.5038273056002}, "311": {"place_name": "\uc81c\uc8fc\uc2dc\ub18d\ud611\ud558\ub098\ub85c\ub9c8\ud2b8 \uc624\ub77c\uc810(\ud734\uc5c5\uc911)", "x": 126.504748329037, "y": 33.4937081424065}, "312": {"place_name": "\ub9c8\ud2b8\ud074\ub7fd", "x": 126.466774540153, "y": 33.5030677306253}, "313": {"place_name": "\uc88b\uc740\ub9c8\ud2b8", "x": 126.50974360153519, "y": 33.5053269806671}, "314": {"place_name": "\ub274\uc6d4\ub4dc\ub9c8\ud2b8\ub85c \uc5f0\ub3d9\uc810", "x": 126.482294891382, "y": 33.4933711359023}, "315": {"place_name": "\uc9c4\uc601\ub9c8\ud2b8 \uc6a9\ub2f4\uc810", "x": 126.507071738686, "y": 33.5128527695813}, "316": {"place_name": "\uc911\uace0\ud0c0\uc774\uc5b4\ub9c8\ud2b8", "x": 126.510322195381, "y": 33.4960347636873}, "317": {"place_name": "\uc11c\uacbd\uaf43\ub9c8\ud2b8", "x": 126.487217976909, "y": 33.4935394671134}, "318": {"place_name": "\uad11\uace0\ub9c8\ud2b8", "x": 126.50503318487213, "y": 33.50151435822312}, "319": {"place_name": "\uadf8\ub9b0\ub9c8\ud2b8 \uc2e0\uc81c\uc8fc", "x": 126.493629364033, "y": 33.4931402813985}, "320": {"place_name": "\uc73c\ub738\ub9c8\ud2b8", "x": 126.51038375504592, "y": 33.49599533689721}, "321": {"place_name": "\ubc14\uad6c\ub2c8\ub9c8\ud2b8", "x": 126.461983553509, "y": 33.4946874863328}, "322": {"place_name": "\uc0bc\uc2e0\uc8fc\ubc29\uadf8\ub987\ub9c8\ud2b8", "x": 126.507131808866, "y": 33.4999782984778}, "323": {"place_name": "\ube44\ubc14\ub9ac\ub18d\uc218\uc0b0\ub9c8\ud2b8", "x": 126.50307815715288, "y": 33.51218316230201}, "324": {"place_name": "\ub300\ub9bc\ub9c8\ud2b8", "x": 126.45958989081149, "y": 33.493895392156176}, "325": {"place_name": "\uc9c0\uc740\ucf54\uc0ac\ub9c8\ud2b8", "x": 126.504090323179, "y": 33.5026709354117}, "326": {"place_name": "\uadf8\ub9b0\ub9c8\ud2b8 \uc774\ud638\uc810", "x": 126.459942117513, "y": 33.4934921140644}, "327": {"place_name": "\uc81c\uc8fc\uc2dc\ub18d\ud611\ud558\ub098\ub85c\ub9c8\ud2b8 \uc624\ub77c\uc810 \uc8fc\ucc28\uc7a5", "x": 126.504632010266, "y": 33.4935372765621}, "328": {"place_name": "\ud63c\uae38\ub9c8\ud2b8", "x": 126.48729068268096, "y": 33.50183349922038}, "329": {"place_name": "\ucc29\ud55c\uc81c\uc8fc\ub9c8\ud2b8", "x": 126.433518944124, "y": 33.4933885624749}, "330": {"place_name": "\uac70\ub8e1\ub09a\uc2dc\ud560\uc778\ub9c8\ud2b8", "x": 126.461084055723, "y": 33.4953651791525}, "331": {"place_name": "\ucf54\uc0ac\ub9c8\ud2b8 \uc218\uc790\uc288\ud37c\uc810", "x": 126.510654595927, "y": 33.5065738756066}, "332": {"place_name": "\ud574\uc9c4\ub9c8\ud2b8", "x": 126.33229948387837, "y": 33.955703162477036}, "333": {"place_name": "\uc81c\uc8fc\ucd95\uc0b0\ud560\uc778\ub9c8\ud2b8", "x": 126.50691212131238, "y": 33.51290983607259}, "334": {"place_name": "\ud604\uc6b0\ub18d\uc218\ub9c8\ud2b8", "x": 126.50311565848, "y": 33.5105180770743}, "335": {"place_name": "DC\ub9c8\ud2b8", "x": 126.512372315507, "y": 33.5096343349079}, "336": {"place_name": "\ucf54\uc0ac\ub9c8\ud2b8 \ucd94\uc790\uc810", "x": 126.297029865764, "y": 33.9636672746485}, "337": {"place_name": "\ubc14\uad6c\ub2c8\ub9c8\ud2b8\uad6c\ub0b4", "x": 126.46196187633, "y": 33.4947126367176}, "338": {"place_name": "CU \uc81c\uc8fc\uc11c\ud574\uc548\ub85c\uc810", "x": 126.488459454453, "y": 33.5181038940004}, "339": {"place_name": "CU \ub3c4\ub450\ud56d\uc810", "x": 126.466420089941, "y": 33.5040074630474}, "340": {"place_name": "CU \uc81c\uc8fc\uc774\ud638\ud589\uc6b4\uc810", "x": 126.450393429511, "y": 33.4951451173661}, "341": {"place_name": "CU \uc81c\uc8fc\uc6a9\uc6d0\uc810", "x": 126.50840569951566, "y": 33.50611778371509}, "342": {"place_name": "CU \uc81c\uc8fc\ub0a8\uc131\uc810", "x": 126.512547006834, "y": 33.5045834106414}, "343": {"place_name": "\ud0d1\ub9c8\ud2b8", "x": 126.51133367812952, "y": 33.509641061470425}, "344": {"place_name": "\uc81c\uc8fc\uc740\ud589 365\ucf54\ub108 \uc6a9\ub2f4\ud0b9\ub9c8\ud2b8", "x": 126.508938870139, "y": 33.5090888348881}, "345": {"place_name": "\ubcf4\ub5bc \uc6a9\ub2f4\ud0b9\ub9c8\ud2b8\ud654\uc7a5\ud488\uc810", "x": 126.50893675840271, "y": 33.50908161379725}, "346": {"place_name": "\uae08\uac15\ucd95\uc0b0\uc720\ud1b5 \ucd95\uc0b0\ubb3c\ud560\uc778\ub9c8\ud2b8", "x": 126.46634210228707, "y": 33.50443988958604}, "347": {"place_name": "\ub098\ub4e4\uac00\uac8c \ucf54\uc0ac\ub9c8\ud2b8\ub3c4\ub450\uc810", "x": 126.465620507051, "y": 33.5038273056002}, "348": {"place_name": "\uc81c\uc8fc\uc740\ud589 365\ucf54\ub108 \uc9c4\uc601\ud558\uc774\ud37c\ub9c8\ud2b8", "x": 126.507199831846, "y": 33.5128505744373}, "349": {"place_name": "\uc9c4\ub3c4\ub18d\ud611 \ud558\ub098\ub85c\ub9c8\ud2b8", "x": 126.262667473681, "y": 34.4798143807524}, "350": {"place_name": "\uc9c4\ub3c4\ub18d\ud611\ud558\ub098\ub85c\ub9c8\ud2b8 \uc758\uc2e0\uc810", "x": 126.28041495398115, "y": 34.44002523734068}, "351": {"place_name": "\uc120\uc9c4\ub18d\ud611\ud558\ub098\ub85c\ub9c8\ud2b8 \uace0\uad70\uc810", "x": 126.343449961429, "y": 34.4916944838897}, "352": {"place_name": "\uc11c\uc9c4\ub3c4\ub18d\ud611\ud558\ub098\ub85c\ub9c8\ud2b8", "x": 126.19352424144853, "y": 34.40809139773199}, "353": {"place_name": "\uc120\uc9c4\ub18d\ud611\ud558\ub098\ub85c\ub9c8\ud2b8", "x": 126.314074098864, "y": 34.5015498576568}, "354": {"place_name": "\uc11c\uc9c4\ub3c4\ub18d\ud611\ud558\ub098\ub85c\ub9c8\ud2b8 \uc870\ub3c4\uc810", "x": 126.04762261291684, "y": 34.29764627732961}, "355": {"place_name": "\uc11c\uc9c4\ub3c4\ub18d\ud611\ud558\ub098\ub85c\ub9c8\ud2b8 \uc9c0\uc0b0\uc810", "x": 126.1662700833518, "y": 34.4236089790274}, "356": {"place_name": "\uc11c\uc9c4\ub3c4\ub18d\ud611\ud558\ub098\ub85c\ub9c8\ud2b8 \ub3d9\ubd80\uc810", "x": 126.19029797369329, "y": 34.46847247453002}, "357": {"place_name": "\uc11c\uc9c4\ub3c4\ub18d\ud611\ud558\ub098\ub85c\ub9c8\ud2b8 \uad11\uc11d\uc810", "x": 126.23204746831239, "y": 34.42668542068433}, "358": {"place_name": "\uc9c4\ub3c4\ucc44\uc6d0\uc54c\ub730\ub9c8\ud2b8", "x": 126.2806097245962, "y": 34.440912499497585}, "359": {"place_name": "\uc9c4\ub3c4\uc2dd\uc790\uc7ac\ub9c8\ud2b8", "x": 126.25778674000948, "y": 34.480758384254365}, "360": {"place_name": "\uc11c\uc9c4\ub3c4\ub18d\ud611\ud611\ub3d9\uc870\ud569", "x": 126.192915572592, "y": 34.4085029465687}, "361": {"place_name": "\ud0dc\ud638\ub9c8\ud2b8", "x": 126.353402782993, "y": 34.4365351283558}, "362": {"place_name": "\ud604\uc6b0\uc54c\ub730\ub9c8\ud2b8", "x": 126.26236258686295, "y": 34.486749969631106}, "363": {"place_name": "\ud0dc\uac74\uc885\ud569\uac74\uc7ac\ub9c8\ud2b8", "x": 126.256828724576, "y": 34.4807669851145}, "364": {"place_name": "\uae40\ubc25\ub9c8\ud2b8", "x": 126.264685642308, "y": 34.4825452637633}, "365": {"place_name": "\uc9c4\ub3c4\uc885\ud569\uac74\uc7ac\ub9c8\ud2b8", "x": 126.26823837302531, "y": 34.48084935763175}, "366": {"place_name": "\uc544\uc2dc\uc544\ub9c8\ud2b8", "x": 126.272799822929, "y": 34.4824405734889}, "367": {"place_name": "\uc2e0\ubc1c\ub9c8\ud2b8", "x": 126.263518059725, "y": 34.4801377156804}, "368": {"place_name": "\ud589\ubcf5\ub9c8\ud2b8", "x": 126.26399203521, "y": 34.4846720762653}, "369": {"place_name": "\ub85c\uc584\ud0c0\uc774\uc5b4\ub9c8\ud2b8", "x": 126.260059571425, "y": 34.481262546364}, "370": {"place_name": "\uae08\ub3d9\uc774\ub124\ub9c8\ud2b8\uc2dd\ud488", "x": 126.345842985199, "y": 34.4227577752629}, "371": {"place_name": "\uc2e0\ub18d\ub18d\uc790\uc7ac\ub9c8\ud2b8", "x": 126.256618096544, "y": 34.4805818117423}, "372": {"place_name": "\uc9c4\ub3c4\ub9c8\ud2b8", "x": 126.137120284737, "y": 34.3640237906854}, "373": {"place_name": "\uc6d4\ub4dc\ub9c8\ud2b8", "x": 126.263279635239, "y": 34.4800172893872}, "374": {"place_name": "\uacfc\uc77c\ub9c8\ud2b8", "x": 126.264203745131, "y": 34.4838692729052}, "375": {"place_name": "\uc720\uc77c\ub09a\uc2dc\ub9c8\ud2b8", "x": 126.192883653133, "y": 34.4091085026346}, "376": {"place_name": "\uc11c\ubd80\ub9c8\ud2b8", "x": 126.1245697294, "y": 34.4356130981654}, "377": {"place_name": "\uc54c\ub730\ub9c8\ud2b8 \uc11d\uad50\uc810", "x": 126.193664641031, "y": 34.40842134838}, "378": {"place_name": "\uc9c4\ub3c4\ub18d\ud611 \ud558\ub098\ub85c\ub9c8\ud2b8 \uc8fc\ucc28\uc7a5", "x": 126.263278715215, "y": 34.4797504594932}, "379": {"place_name": "6\ubc88\ub9c8\ud2b8", "x": 126.313942308458, "y": 34.5011560924334}, "380": {"place_name": "\uc6b0\uc815\ub9c8\ud2b8", "x": 126.343201693863, "y": 34.491144174267}, "381": {"place_name": "\uc911\uc559\ub9c8\ud2b8", "x": 126.167176008551, "y": 34.4245093741117}, "382": {"place_name": "\uc6b0\ub3c8\ub2e4\ub2c8\uc6d4\ub4dc\ub9c8\ud2b8", "x": 126.314812866996, "y": 34.5018839279008}, "383": {"place_name": "\uc131\uc548\ub9c8\ud2b8", "x": 126.265051605301, "y": 34.487115026311}, "384": {"place_name": "\ud130\ubbf8\ub110\ub18d\uc57d\ud560\uc778\ub9c8\ud2b8", "x": 126.26291467092625, "y": 34.478442086968144}, "385": {"place_name": "\uc0bc\uc131\uc9c4\ub3c4\uac00\uc804\ub9c8\ud2b8", "x": 126.262321085042, "y": 34.4845394061247}, "386": {"place_name": "\uc784\ud68c\uc885\ud569\ub9c8\ud2b8", "x": 126.192260977924, "y": 34.409165690372}, "387": {"place_name": "\ub18d\uae30\uacc4\ud558\ub098\ub85c\ub9c8\ud2b8 \uc9c4\ub3c4\uc911\uace0\ub18d\uae30\uacc4\uc0c1\uc124\ud310\ub9e4\uc7a5", "x": 126.257191371808, "y": 34.4806267634638}, "388": {"place_name": "\uc54c\ub738\ub9c8\ud2b8", "x": 126.262361926808, "y": 34.4867012882893}, "389": {"place_name": "CU \uc9c4\ub3c4\uc911\uc559\uc810", "x": 126.263869648977, "y": 34.4807591188343}, "390": {"place_name": "CU \uc9c4\ub3c4\ub18d\ubbfc\ud6c4\uacc4\uc810", "x": 126.263680172077, "y": 34.4820055612221}, "391": {"place_name": "\uc9c4\ub3c4\ub18d\ud611 \ud558\ub098\ub85c\ub9c8\ud2b8<\uac04>", "x": 126.26351662870937, "y": 34.47980507799904}, "392": {"place_name": "\ubc8c\ud06c\ucee4\ud53c \uc9c4\ub3c4\ud558\ub098\ub85c\ub9c8\ud2b8\uc810", "x": 126.2626654235729, "y": 34.47979994544631}, "393": {"place_name": "\ub098\ub4e4\uac00\uac8c \ubcf4\uad11\ub9c8\ud2b8", "x": 126.313786298702, "y": 34.5010605657174}, "394": {"place_name": "\uc2e0\uc548\ub18d\ud611\ud558\ub098\ub85c\ub9c8\ud2b8 \uc548\uc88c\uc810", "x": 126.12622860696648, "y": 34.7523105768438}, "395": {"place_name": "\ub0a8\uc2e0\uc548\ub18d\ud611\ud558\ub098\ub85c\ub9c8\ud2b8", "x": 126.037726549469, "y": 34.6081283267891}, "396": {"place_name": "\ub0a8\uc2e0\uc548\ub18d\ud611\ud558\ub098\ub85c\ub9c8\ud2b8 \uc2e0\uc758\uc810", "x": 126.088027386069, "y": 34.5851143011401}, "397": {"place_name": "\ub0a8\uc2e0\uc548\ub18d\ud611\ud558\ub098\ub85c\ub9c8\ud2b8 \uc7a5\uc0b0\uc810", "x": 126.14685509437244, "y": 34.64162696221314}, "398": {"place_name": "\uc2e0\uc758\ub9c8\ud2b8", "x": 126.092535132699, "y": 34.5855264937827}, "399": {"place_name": "\ubb38\ub0b4\ub18d\ud611\ud558\ub098\ub85c\ub9c8\ud2b8", "x": 126.312967968458, "y": 34.5990888460191}, "400": {"place_name": "\uc120\uc9c4\ub18d\ud611\ud558\ub098\ub85c\ub9c8\ud2b8 \uace0\uad70\uc810", "x": 126.343449961429, "y": 34.4916944838897}, "401": {"place_name": "\uc120\uc9c4\ub18d\ud611\ud558\ub098\ub85c\ub9c8\ud2b8", "x": 126.314074098864, "y": 34.5015498576568}, "402": {"place_name": "\uc120\uc9c4\ub18d\ud611\ud558\ub098\ub85c\ub9c8\ud2b8 \uad70\ub0b4\uc810", "x": 126.298168383396, "y": 34.5373797204775}, "403": {"place_name": "\ub179\uc9c4\ub9c8\ud2b8", "x": 126.298834209495, "y": 34.5705938582675}, "404": {"place_name": "\ub9e4\uc77c\uc2dd\ud488\ub9c8\ud2b8", "x": 126.311845935553, "y": 34.5963503195826}, "405": {"place_name": "6\ubc88\ub9c8\ud2b8", "x": 126.313942308458, "y": 34.5011560924334}, "406": {"place_name": "\uc6b0\uc815\ub9c8\ud2b8", "x": 126.343201693863, "y": 34.491144174267}, "407": {"place_name": "\uc6b0\ub3c8\ub2e4\ub2c8\uc6d4\ub4dc\ub9c8\ud2b8", "x": 126.314812866996, "y": 34.5018839279008}, "408": {"place_name": "\uadf8\ub9b0\ub9c8\ud2b8", "x": 126.312301188088, "y": 34.5963988585665}, "409": {"place_name": "\ubb38\ub0b4\uc885\ud569\ub9c8\ud2b8", "x": 126.31183378086699, "y": 34.59782407267648}, "410": {"place_name": "\uc911\uc559\uc2dd\ud488\uc810", "x": 126.310231843992, "y": 34.5914329725421}, "411": {"place_name": "\uc0c8\ub85c\ub098\uc218\ud37c", "x": 126.312550741073, "y": 34.5973341359077}, "412": {"place_name": "\ub098\ub4e4\uac00\uac8c \ubcf4\uad11\ub9c8\ud2b8", "x": 126.313786298702, "y": 34.5010605657174}, "413": {"place_name": "\ud669\uc0b0\ub18d\ud611\ud558\ub098\ub85c\ub9c8\ud2b8 \ubcf8\uc810", "x": 126.43507382745146, "y": 34.57597072921763}, "414": {"place_name": "\ud669\uc0b0\ud560\uc778\ub9c8\ud2b8", "x": 126.429912438916, "y": 34.5740546287959}, "415": {"place_name": "\ud669\uc0b0\ub300\ud615\ub9c8\ud2b8", "x": 126.432193994878, "y": 34.5757275016221}, "416": {"place_name": "\uc11c\ud504\ub77c\uc774\uc2a4\ub9c8\ud2b8", "x": 126.43017526073, "y": 34.5756252466056}, "417": {"place_name": "\ub18d\uc7a5\ub9c8\ud2b8", "x": 126.431957914986, "y": 34.5758273633862}, "418": {"place_name": "\ub098\ub4e4\uac00\uac8c \ud6a8\uba85\ub9c8\ud2b8", "x": 126.433555915021, "y": 34.5761007118114}, "419": {"place_name": "\ub86f\ub370\uc288\ud37c\ud504\ub808\uc2dc \ud55c\ub9c8\uc74c\uc810", "x": 126.37969433743353, "y": 34.74508936953672}, "420": {"place_name": "\ud574\ub0a8\ud654\uc6d0\ub18d\ud611\ud558\ub098\ub85c\ub9c8\ud2b8", "x": 126.329379078032, "y": 34.6686720891965}, "421": {"place_name": "\uc601\uc554\ub9c8\ud2b8 \uc0bc\ud638\uc810", "x": 126.378681843656, "y": 34.7467320622399}, "422": {"place_name": "\uc544\uc2dc\uc544\ub9c8\ud2b8", "x": 126.378013530406, "y": 34.7471658309477}, "423": {"place_name": "\ubca0\ud2b8\ub0a8\uc804\ubb38\ub9c8\ud2b8", "x": 126.376939660684, "y": 34.7483790373154}, "424": {"place_name": "\uc0bc\ud638\ub9c8\ud2b8", "x": 126.381726115993, "y": 34.7450240734115}, "425": {"place_name": "\uc2e0\ucca0\ub9c8\ud2b8", "x": 126.328485727565, "y": 34.6685121289404}, "426": {"place_name": "\ud604\ub300\ub9c8\ud2b8", "x": 126.375055405849, "y": 34.7474202062988}, "427": {"place_name": "\uc0ac\ub791\uc560\ub9c8\ud2b8", "x": 126.380714611208, "y": 34.7447692456019}, "428": {"place_name": "\uc6b0\ub9ac\ub9c8\ud2b8", "x": 126.328303228025, "y": 34.6689546175482}, "429": {"place_name": "1\ucc28\ub9c8\ud2b8", "x": 126.36998266039, "y": 34.7464277667228}, "430": {"place_name": "\uc81c\uc77c\ub18d\uc57d\uc6d0\uc608\ud560\uc778\ub9c8\ud2b8", "x": 126.327666753794, "y": 34.6699498717736}, "431": {"place_name": "\ud0dc\uc591\ub9c8\ud2b8", "x": 126.37053101887011, "y": 34.74784760587853}, "432": {"place_name": "\uc0bc\ud6384\ucc28\uc0bc\ud638\ub9c8\ud2b8", "x": 126.370944813545, "y": 34.7480047850761}, "433": {"place_name": "\ubcf5\uad8c\ud310\ub9e4\uc810 \uc0bc\ud638\ub9c8\ud2b8", "x": 126.379794259216, "y": 34.7460535679475}, "434": {"place_name": "\uc0b0\uc774\ub18d\ud611\ud558\ub098\ub85c\ub9c8\ud2b8", "x": 126.44664100621043, "y": 34.64484851265602}, "435": {"place_name": "\uc601\uc77c\ub18d\uc790\uc7ac\ub9c8\ud2b8", "x": 126.438724612242, "y": 34.6488849513894}, "436": {"place_name": "\uc0b0\uc774\ub18d\ud611\ud558\ub098\ub85c\ub9c8\ud2b8", "x": 126.44664100621043, "y": 34.64484851265602}, "437": {"place_name": "\uc601\uc77c\ub18d\uc790\uc7ac\ub9c8\ud2b8", "x": 126.438724612242, "y": 34.6488849513894}, "438": {"place_name": "\uc0c8\ub18d\uc0ac\ub9c8\ud2b8", "x": 126.449185872882, "y": 34.6431671643773}, "439": {"place_name": "\ub86f\ub370\uc288\ud37c\ud504\ub808\uc2dc \ud55c\ub9c8\uc74c\uc810", "x": 126.37969433743353, "y": 34.74508936953672}, "440": {"place_name": "\uc601\uc554\ub9c8\ud2b8 \uc0bc\ud638\uc810", "x": 126.378681843656, "y": 34.7467320622399}, "441": {"place_name": "\uc544\uc2dc\uc544\ub9c8\ud2b8", "x": 126.378013530406, "y": 34.7471658309477}, "442": {"place_name": "\ubca0\ud2b8\ub0a8\uc804\ubb38\ub9c8\ud2b8", "x": 126.376939660684, "y": 34.7483790373154}, "443": {"place_name": "\uc0bc\ud638\ub9c8\ud2b8", "x": 126.381726115993, "y": 34.7450240734115}, "444": {"place_name": "\ud604\ub300\ub9c8\ud2b8", "x": 126.375055405849, "y": 34.7474202062988}, "445": {"place_name": "\uc0ac\ub791\uc560\ub9c8\ud2b8", "x": 126.380714611208, "y": 34.7447692456019}, "446": {"place_name": "1\ucc28\ub9c8\ud2b8", "x": 126.36998266039, "y": 34.7464277667228}, "447": {"place_name": "\ud0dc\uc591\ub9c8\ud2b8", "x": 126.37053101887011, "y": 34.74784760587853}, "448": {"place_name": "\uc0bc\ud6384\ucc28\uc0bc\ud638\ub9c8\ud2b8", "x": 126.370944813545, "y": 34.7480047850761}, "449": {"place_name": "\ubcf5\uad8c\ud310\ub9e4\uc810 \uc0bc\ud638\ub9c8\ud2b8", "x": 126.379794259216, "y": 34.7460535679475}, "450": {"place_name": "\uc0bc\ud638\ub18d\ud611\ud558\ub098\ub85c\ub9c8\ud2b8", "x": 126.47272179476806, "y": 34.74852673150809}, "451": {"place_name": "\ub86f\ub370\uc288\ud37c\ud504\ub808\uc2dc \uc601\uc554\uc0bc\ud638\uac00\ub9f9\uc810", "x": 126.46572233707636, "y": 34.74636620025583}, "452": {"place_name": "\ud558\ub098\ub85c\ub9c8\ud2b8 \uacf5\ub2e8\uc810", "x": 126.455895010073, "y": 34.7550122467119}, "453": {"place_name": "\ud30c\uba38\uc2a4\uc2dd\uc790\uc7ac\ub9c8\ud2b8 \uc0bc\ud638\uc810", "x": 126.456852171232, "y": 34.75494801289433}, "454": {"place_name": "\uc0bc\ud638\uc2dd\uc790\uc7ac\ub9c8\ud2b8", "x": 126.45347274890057, "y": 34.753825966792114}, "455": {"place_name": "\uc6b0\ub9ac\ub9c8\ud2b8", "x": 126.454539203647, "y": 34.7575679748997}, "456": {"place_name": "\uc0bc\uc131\ub9c8\ud2b8", "x": 126.46002199342016, "y": 34.75355231131151}, "457": {"place_name": "\ub300\ubd88\ub9c8\ud2b8", "x": 126.455357981324, "y": 34.7559617301015}, "458": {"place_name": "JK\uc544\uc2dc\uc544\ub9c8\ud2b8", "x": 126.453494706169, "y": 34.7549690474738}, "459": {"place_name": "\uc0bc\ud638\uc8fc\uacf5\ub9c8\ud2b8", "x": 126.473896209646, "y": 34.7453597571752}, "460": {"place_name": "\uc544\uc2dc\uc544\ub9c8\ud2b8", "x": 126.452776842933, "y": 34.7566712823546}, "461": {"place_name": "\uc544\uc2dc\uc544\uc6d4\ub4dc\ub9c8\ud2b8", "x": 126.453727645522, "y": 34.7554198939354}, "462": {"place_name": "\uc57c\ubbf8\ub9c8\ud2b8", "x": 126.45534937003652, "y": 34.75228305528658}, "463": {"place_name": "\ud604\ub300\uc885\ud569\ub9c8\ud2b8", "x": 126.455093504491, "y": 34.7523296851695}, "464": {"place_name": "\ub274\uc544\uc2dc\uc544\ub9c8\ud2b8", "x": 126.454015717968, "y": 34.752140970943}, "465": {"place_name": "\uc6a9\ub9c8\ud2b8", "x": 126.451253598416, "y": 34.7556260088727}, "466": {"place_name": "\uc2a4\ud0c0\uacf5\uad6c\ub9c8\ud2b8", "x": 126.452072376728, "y": 34.7566717201483}, "467": {"place_name": "\ud038\uc2a4\ube4c\ub9c8\ud2b8", "x": 126.465705513872, "y": 34.7460957042577}, "468": {"place_name": "\uc8fc\uacf52\ucc28\ub9c8\ud2b8", "x": 126.475388625761, "y": 34.7455969554053}, "469": {"place_name": "\uc601\uc554\ud560\uc778\ub9c8\ud2b8", "x": 126.451512316432, "y": 34.7548195153667}, "470": {"place_name": "\ubbfc\uc900\ub9c8\ud2b8", "x": 126.454474034729, "y": 34.7538593014284}, "471": {"place_name": "\ud61c\uc131\ub9c8\ud2b8", "x": 126.453283700673, "y": 34.7525162772045}, "472": {"place_name": "\uc0bc\ud638\ud560\uc778\ub9c8\ud2b8", "x": 126.4728468823707, "y": 34.74413651628555}, "473": {"place_name": "\ud558\ub098\ub9c8\ud2b8", "x": 126.4567143024205, "y": 34.75298593906155}, "474": {"place_name": "\ud558\ub098\ub85c\ub9c8\ud2b8\uc2dd\uc790\uc7ac\ud310\ub9e4\uc7a5", "x": 126.473307146977, "y": 34.7486996304475}, "475": {"place_name": "\ud55c\ubca0\ub9c8\ud2b8", "x": 126.454772415009, "y": 34.7533270055916}, "476": {"place_name": "\uc885\uc6d0\ub9c8\ud2b8", "x": 126.47448991731989, "y": 34.74783127614966}, "477": {"place_name": "\uc194\ub9c8\ud2b8", "x": 126.468984926536, "y": 34.7455872308559}, "478": {"place_name": "\uce74\uc548\ub2c8\uc789\ub9c8\ud2b8", "x": 126.454502773644, "y": 34.7524784766265}, "479": {"place_name": "\uae08\ud638\ucd95\uc0b0\ub9c8\ud2b8", "x": 126.460123996565, "y": 34.7538213825374}, "480": {"place_name": "\uc6d4\ub4dc\ub9c8\ud2b8", "x": 126.454637406161, "y": 34.7565858831526}, "481": {"place_name": "\uba39\uc2f8\ub9c8\ud2b8", "x": 126.48502663443686, "y": 34.75129172114224}, "482": {"place_name": "\ube45C\ub9c8\ud2b8", "x": 126.454567497713, "y": 34.7567532314071}, "483": {"place_name": "\ud589\ubcf5\ub9c8\ud2b8", "x": 126.452788900593, "y": 34.7550091453081}, "484": {"place_name": "\ube14\ub9ac\uc2a4\ub9c8\ud2b8", "x": 126.452781778719, "y": 34.7559231382561}, "485": {"place_name": "\ud55c\uc591\ub9c8\ud2b8", "x": 126.462816764678, "y": 34.7469807982433}, "486": {"place_name": "\ud0c0\uc774\ud478\ub4dc\ub9c8\ud2b8", "x": 126.455407664133, "y": 34.7515549799951}, "487": {"place_name": "\ub809\uc9c0\uc548\ub9c8\ud2b8", "x": 126.461176091623, "y": 34.7586431538923}, "488": {"place_name": "\uc138\uc790\ub9e4DC\ub9c8\ud2b8", "x": 126.475515782165, "y": 34.7462122632371}, "489": {"place_name": "\ub9ac\ud0c0 \uc544\uc138\uc548 \ub9c8\ud2b8", "x": 126.453528104576, "y": 34.7532150622169}, "490": {"place_name": "\uc0bc\ud638\ub18d\ud611\ud558\ub098\ub85c\ub9c8\ud2b8 \uc804\uae30\ucc28\ucda9\uc804\uc18c", "x": 126.47310917099335, "y": 34.748576182675954}, "491": {"place_name": "CU \uc0bc\ud638\uc911\uc559\uc810", "x": 126.46622147402, "y": 34.7453371788771}, "492": {"place_name": "\ud558\ub098\uc740\ud589365 \uc0bc\ud638\uc2dd\uc790\uc7ac\ub9c8\ud2b8", "x": 126.453482506731, "y": 34.7538368274516}, "493": {"place_name": "\uc6b0\ub9ac\ub3d9\ub124 \ub300\ubd88DC\ub9c8\ud2b8\uc810", "x": 126.453109216292, "y": 34.7551277669814}, "494": {"place_name": "\uc2e0\uc548\ub18d\ud611\ud558\ub098\ub85c\ub9c8\ud2b8 \ub85c\uceec\ud478\ub4dc\uc9c1\ub9e4\uc7a5", "x": 126.11371558294964, "y": 34.82856314459806}, "495": {"place_name": "\uc2e0\uc548\ub18d\ud611\ud558\ub098\ub85c\ub9c8\ud2b8 \uc790\uc740\uc810", "x": 126.046075670822, "y": 34.8841198239967}, "496": {"place_name": "\ubd81\uc2e0\uc548\ub18d\ud611\ud558\ub098\ub85c\ub9c8\ud2b8 \uc99d\ub3c4\uc810", "x": 126.14007123428, "y": 35.0011934386101}, "497": {"place_name": "\uc2e0\uc548\ub18d\ud611\ud558\ub098\ub85c\ub9c8\ud2b8 \uc548\uc88c\uc810", "x": 126.12622860696648, "y": 34.7523105768438}, "498": {"place_name": "\uc2e0\uc548\ub18d\ud611\ud558\ub098\ub85c\ub9c8\ud2b8 \ud314\uae08\uc810", "x": 126.142918050679, "y": 34.7839162759693}, "499": {"place_name": "\ucc9c\uc0ac\ub9c8\ud2b8", "x": 126.114509348637, "y": 34.8291602243988}, "500": {"place_name": "\uc6b0\uc804\ub9c8\ud2b8", "x": 126.138034618608, "y": 34.9643317735168}, "501": {"place_name": "\uc0bc\uc591\ud560\uc778\ub9c8\ud2b8", "x": 126.04500337149108, "y": 34.88556709624652}, "502": {"place_name": "88\ub9c8\ud2b8", "x": 126.112487755929, "y": 34.8280782692513}, "503": {"place_name": "\uc11c\uc6b8\ub9c8\ud2b8", "x": 126.24453023374994, "y": 34.84960520587167}, "504": {"place_name": "\ub0a8\uc591\ub9c8\ud2b8", "x": 126.142932620937, "y": 34.7841976091347}, "505": {"place_name": "\uc81c\uc774\uc6d4\ub4dc\ub9c8\ud2b8", "x": 126.04559588579, "y": 34.8836112981447}, "506": {"place_name": "\ubc1c\ub9ac\ub9c8\ud2b8", "x": 126.22812446580316, "y": 34.84824026446633}, "507": {"place_name": "\ub86f\ub370\uc288\ud37c\ud504\ub808\uc2dc \ud55c\ub9c8\uc74c\uc810", "x": 126.37969433743353, "y": 34.74508936953672}, "508": {"place_name": "\ucc9c\ub0e5&DC\ub9c8\ud2b8", "x": 126.384090357389, "y": 34.7864932368393}, "509": {"place_name": "\uc601\uc554\ub9c8\ud2b8 \uc0bc\ud638\uc810", "x": 126.378681843656, "y": 34.7467320622399}, "510": {"place_name": "\ud55c\uc6b0\ub9ac\ub9c8\ud2b8\uace0 \uc131\uc2ec\uc810", "x": 126.38146348101104, "y": 34.786681829522614}, "511": {"place_name": "\uc2e0\uc548\ud560\uc778\ub9c8\ud2b8", "x": 126.38492004394, "y": 34.7833461477874}, "512": {"place_name": "\uc544\uc2dc\uc544\ub9c8\ud2b8", "x": 126.378013530406, "y": 34.7471658309477}, "513": {"place_name": "\ubca0\ud2b8\ub0a8\uc804\ubb38\ub9c8\ud2b8", "x": 126.376939660684, "y": 34.7483790373154}, "514": {"place_name": "\uc0c8\ud55c24\uc2dc\ud560\uc778\ub9c8\ud2b8", "x": 126.38089414247, "y": 34.7828939694327}, "515": {"place_name": "\uc544\uc774\ud2f0\ub9c8\ud2b8 \ubaa9\ud3ec\uc810", "x": 126.384463582085, "y": 34.7905225646898}, "516": {"place_name": "\uc0bc\ud638\ub9c8\ud2b8", "x": 126.381726115993, "y": 34.7450240734115}, "517": {"place_name": "\ud604\ub300\ub9c8\ud2b8", "x": 126.375055405849, "y": 34.7474202062988}, "518": {"place_name": "\uc0ac\ub791\uc560\ub9c8\ud2b8", "x": 126.380714611208, "y": 34.7447692456019}, "519": {"place_name": "\uc2e0\ud560\uc778\ub9c8\ud2b8", "x": 126.384983285645, "y": 34.7836574494108}, "520": {"place_name": "\ub0a8\ud765\ub9c8\ud2b8", "x": 126.382768524436, "y": 34.7826547023739}, "521": {"place_name": "\ucf54\uc0ac\ub9c8\ud2b8\uc6a9\uc0b0\uc810", "x": 126.383382173932, "y": 34.7860786144547}, "522": {"place_name": "\ud589\uc6b4\ub9c8\ud2b8", "x": 126.384860623836, "y": 34.7864935263139}, "523": {"place_name": "\ub3d9\uc544\ub9c8\ud2b8", "x": 126.383290295654, "y": 34.781982200253}, "524": {"place_name": "\uc6d0\ud48d\ub9c8\ud2b8", "x": 126.380935993655, "y": 34.7847501588235}, "525": {"place_name": "\ubcf4\ub78c\uc57c\ucc44\ub9c8\ud2b8", "x": 126.381746213564, "y": 34.7867148147926}, "526": {"place_name": "DC\ub9c8\ud2b8 \uc11c\uc0b05\ud638\uc810", "x": 126.379718346986, "y": 34.7827789146512}, "527": {"place_name": "1\ucc28\ub9c8\ud2b8", "x": 126.36998266039, "y": 34.7464277667228}, "528": {"place_name": "\ucf54\uc0ac\ub9c8\ud2b8 \uc77c\uc2e0\ub9c8\ud2b8", "x": 126.383691572385, "y": 34.7844360332382}, "529": {"place_name": "\ud0dc\uc591\ub9c8\ud2b8", "x": 126.37053101887011, "y": 34.74784760587853}, "530": {"place_name": "\uc0bc\ud6384\ucc28\uc0bc\ud638\ub9c8\ud2b8", "x": 126.370944813545, "y": 34.7480047850761}, "531": {"place_name": "\ubcf5\uad8c\ud310\ub9e4\uc810 \uc0bc\ud638\ub9c8\ud2b8", "x": 126.379794259216, "y": 34.7460535679475}, "532": {"place_name": "\ub098\ub4e4\uac00\uac8c \uc6a9\uc0b0\ub9c8\ud2b8", "x": 126.383291406487, "y": 34.786089872777}, "533": {"place_name": "\ub098\ub4e4\uac00\uac8c \ud589\uc6b4\ub9c8\ud2b8", "x": 126.38481251198, "y": 34.7864986915473}, "534": {"place_name": "\uc555\ud574\ub09a\uc2dc\ub9c8\ud2b8", "x": 126.334881602014, "y": 34.8202492007101}, "535": {"place_name": "\ub9c8\ud2b8\uc778", "x": 126.36608189697772, "y": 34.80584115506462}, "536": {"place_name": "\ub370\uc774\ub9c8\ud2b8", "x": 126.369346154706, "y": 34.805415531389}, "537": {"place_name": "\uccad\ud574\ub9c8\ud2b8", "x": 126.368761080302, "y": 34.8036061057742}, "538": {"place_name": "\ucf54\uc0ac\ub9c8\ud2b8 \ubc14\ub2e4\uc810", "x": 126.36824545917, "y": 34.8041550828729}, "539": {"place_name": "\uc2e4\ud06c\ubc38\ub9ac\ub9c8\ud2b8", "x": 126.3664748939, "y": 34.8048967389505}, "540": {"place_name": "\uc120\uacbd\ub9c8\ud2b8", "x": 126.365025053653, "y": 34.8028583438107}, "541": {"place_name": "CU \ubaa9\ud3ec\ub4f1\ub300\uc810", "x": 126.367735481941, "y": 34.8033916583838}, "542": {"place_name": "CU \ubaa9\ud3ec\ubd81\ud56d\uc810", "x": 126.36639136714102, "y": 34.803958855205465}, "543": {"place_name": "\ub9c8\ud2b8\uc778", "x": 126.36608189697772, "y": 34.80584115506462}, "544": {"place_name": "\ub370\uc774\ub9c8\ud2b8", "x": 126.369346154706, "y": 34.805415531389}, "545": {"place_name": "\uc555\ud574\ub09a\uc2dc\ub9c8\ud2b8", "x": 126.334881602014, "y": 34.8202492007101}, "546": {"place_name": "\uccad\ud574\ub9c8\ud2b8", "x": 126.368761080302, "y": 34.8036061057742}, "547": {"place_name": "\ucf54\uc0ac\ub9c8\ud2b8 \ubc14\ub2e4\uc810", "x": 126.36824545917, "y": 34.8041550828729}, "548": {"place_name": "\uc2e4\ud06c\ubc38\ub9ac\ub9c8\ud2b8", "x": 126.3664748939, "y": 34.8048967389505}, "549": {"place_name": "\uc120\uacbd\ub9c8\ud2b8", "x": 126.365025053653, "y": 34.8028583438107}, "550": {"place_name": "CU \ubaa9\ud3ec\ub4f1\ub300\uc810", "x": 126.367735481941, "y": 34.8033916583838}, "551": {"place_name": "CU \ubaa9\ud3ec\ubd81\ud56d\uc810", "x": 126.36639136714102, "y": 34.803958855205465}, "552": {"place_name": "\uc555\ud574\ub18d\ud611\ud558\ub098\ub85c\ub9c8\ud2b8", "x": 126.3133543942065, "y": 34.86594877333986}, "553": {"place_name": "\uc12c\ub9c8\ud2b8", "x": 126.31553741371535, "y": 34.86381939953364}, "554": {"place_name": "\uc11c\uc6b8\ub9c8\ud2b8", "x": 126.24453023374994, "y": 34.84960520587167}, "555": {"place_name": "\uc2e0\ud765\ub9c8\ud2b8", "x": 126.311689480769, "y": 34.8653426463611}, "556": {"place_name": "\ud48d\ub144\ub18d\uc57d\ub9c8\ud2b8", "x": 126.315647873299, "y": 34.8636866168092}, "557": {"place_name": "\ub300\uc131\ub9c8\ud2b8", "x": 126.31332325989548, "y": 34.86495797997304}, "558": {"place_name": "CU \uc2e0\uc548\uc555\ud574\uc810", "x": 126.3143694512249, "y": 34.86487374527172}, "559": {"place_name": "\uc555\ud574\ub09a\uc2dc\ub9c8\ud2b8", "x": 126.334881602014, "y": 34.8202492007101}, "560": {"place_name": "\ub86f\ub370\uc288\ud37c\ud504\ub808\uc2dc \ubaa9\ud3ec\uc5f0\uc0b0\uc810", "x": 126.38508666782602, "y": 34.812115920935426}, "561": {"place_name": "\uc555\ud574\ub18d\ud611\ud558\ub098\ub85c\ub9c8\ud2b8 \uc2e0\uc7a5\uc9c0\uc810", "x": 126.354617122085, "y": 34.8394550116335}, "562": {"place_name": "\ucd08\uc6d0\uc2dd\uc790\uc7ac\ub9c8\ud2b8", "x": 126.377335650392, "y": 34.810814555025}, "563": {"place_name": "\ub274\ud558\ub098\ub85c\ub9c8\ud2b8", "x": 126.377407250105, "y": 34.8053632947716}, "564": {"place_name": "\uc640\uc774\ub9c8\ud2b8 \ubaa9\ud3ec\ub300\uc131\uc810", "x": 126.38246327400188, "y": 34.803378046486095}, "565": {"place_name": "\ub9c8\ud2b8\uc778", "x": 126.36608189697772, "y": 34.80584115506462}, "566": {"place_name": "\ub370\uc774\ub9c8\ud2b8", "x": 126.369346154706, "y": 34.805415531389}, "567": {"place_name": "\uc555\ud574\ub09a\uc2dc\ub9c8\ud2b8", "x": 126.334881602014, "y": 34.8202492007101}, "568": {"place_name": "\ud314\ub808\uc2a4\ub9c8\ud2b8", "x": 126.371071631275, "y": 34.8084495363199}, "569": {"place_name": "\uc2e0\uc2e0\ub9c8\ud2b8", "x": 126.384896521871, "y": 34.8046117587772}, "570": {"place_name": "\uc640\uc774\ub9c8\ud2b8 \uc0b0\uc815\uc5f0\uc0b0\uc810", "x": 126.37849918131, "y": 34.8118877524557}, "571": {"place_name": "\ub3c4\uc18c\ub9e4\ud611\ub3d9\uc2dd\uc790\uc7ac\ub9c8\ud2b8", "x": 126.37613916217289, "y": 34.80947797073258}, "572": {"place_name": "\uc544\uc2dc\uc544 \ud0c0\uc774\ub9c8\ud2b8", "x": 126.378722700463, "y": 34.8077352744102}, "573": {"place_name": "\uadf8\ub9b0\ub9c8\ud2b8", "x": 126.372633444731, "y": 34.8048303920226}, "574": {"place_name": "\uccad\ud574\ub9c8\ud2b8", "x": 126.368761080302, "y": 34.8036061057742}, "575": {"place_name": "\ud589\ubcf5\ub9c8\ud2b8", "x": 126.377995463889, "y": 34.8091088883039}, "576": {"place_name": "\ud648\ub9c8\ud2b8 \uc5f0\uc0b0\uc810", "x": 126.38127588122197, "y": 34.81194066278606}, "577": {"place_name": "\uacfc\uc77c\ub9c8\ud2b8", "x": 126.377850921023, "y": 34.8044930146445}, "578": {"place_name": "\ucc28\uad00\ub9c8\ud2b8", "x": 126.372156501431, "y": 34.8048928326376}, "579": {"place_name": "\ube44\uce58\ub9c8\ud2b8", "x": 126.370983766915, "y": 34.8085067713156}, "580": {"place_name": "\ubc18\ucc2c\ub9c8\ud2b8", "x": 126.377284135593, "y": 34.809817350803}, "581": {"place_name": "\ub300\uc2e0\ub9c8\ud2b8", "x": 126.380736650903, "y": 34.8032313593354}, "582": {"place_name": "\ucf54\uc0ac\ub9c8\ud2b8 \ubc14\ub2e4\uc810", "x": 126.36824545917, "y": 34.8041550828729}, "583": {"place_name": "\uc5d0\uc774\ud50c\ub7ec\uc2a4\ud560\uc778\ub9c8\ud2b8", "x": 126.37765120555, "y": 34.8043117146894}, "584": {"place_name": "\uc5e0\uc5d0\uc2a4\ud3ab\ub9c8\ud2b8\ubaa9\ud3ec\ubd81\ud5a5\uc810", "x": 126.373842472735, "y": 34.8091164339901}, "585": {"place_name": "\uc2e4\ud06c\ubc38\ub9ac\ub9c8\ud2b8", "x": 126.3664748939, "y": 34.8048967389505}, "586": {"place_name": "\uc81c\uc774\ub9c8\ud2b8", "x": 126.376119379277, "y": 34.8064473852694}, "587": {"place_name": "\uc120\uacbd\ub9c8\ud2b8", "x": 126.365025053653, "y": 34.8028583438107}, "588": {"place_name": "\ud604\ub300\ud560\uc778\ub9c8\ud2b8", "x": 126.378404254023, "y": 34.8117214112975}, "589": {"place_name": "\ucd08\uc6d0\uc2dd\uc790\uc7ac\ub9c8\ud2b8 \uc8fc\ucc28\uc7a5", "x": 126.377598908856, "y": 34.8103958527372}, "590": {"place_name": "\ud604\ub300\ud074\ub798\uc2a4\ub9c8\ud2b8", "x": 126.384323954097, "y": 34.8131252300081}, "591": {"place_name": "\uac1c\ubbf8\ub9c8\ud2b8\uc5f0\uc0b0\uc810", "x": 126.381833049849, "y": 34.8127015660166}, "592": {"place_name": "\ucf54\uc0ac\ub9c8\ud2b8\uc5d0\uc774\ub370\uc774", "x": 126.37745043368, "y": 34.8042710264442}, "593": {"place_name": "CU \ubaa9\ud3ec\uc0b0\uc815\uc810", "x": 126.37615940277361, "y": 34.805631829322586}, "594": {"place_name": "CU \uc0b0\uc815\ub77c\uc778\uc810", "x": 126.374370715897, "y": 34.807475010019}, "595": {"place_name": "CU \ubaa9\ud3ec\ub4f1\ub300\uc810", "x": 126.367735481941, "y": 34.8033916583838}, "596": {"place_name": "CU \ubaa9\ud3ec\ubd81\ud56d\uc810", "x": 126.36639136714102, "y": 34.803958855205465}, "597": {"place_name": "CU \ubaa9\ud3ec\ubcf4\uac74\uc18c\uc810", "x": 126.374276971737, "y": 34.8042619618568}, "598": {"place_name": "\ub098\ub4e4\uac00\uac8c \ub77c\uc778\ub9c8\ud2b8", "x": 126.375318271518, "y": 34.808482227101}, "599": {"place_name": "\ub098\ub4e4\uac00\uac8c \ucc28\uad00\ub9c8\ud2b8", "x": 126.372166220243, "y": 34.8049082064671}, "600": {"place_name": "\uc555\ud574\ub18d\ud611\ud558\ub098\ub85c\ub9c8\ud2b8", "x": 126.3133543942065, "y": 34.86594877333986}, "601": {"place_name": "\uc12c\ub9c8\ud2b8", "x": 126.31553741371535, "y": 34.86381939953364}, "602": {"place_name": "\uc2e0\ud765\ub9c8\ud2b8", "x": 126.311689480769, "y": 34.8653426463611}, "603": {"place_name": "\ud48d\ub144\ub18d\uc57d\ub9c8\ud2b8", "x": 126.315647873299, "y": 34.8636866168092}, "604": {"place_name": "\ub300\uc131\ub9c8\ud2b8", "x": 126.31332325989548, "y": 34.86495797997304}, "605": {"place_name": "CU \uc2e0\uc548\uc555\ud574\uc810", "x": 126.3143694512249, "y": 34.86487374527172}, "606": {"place_name": "\uc555\ud574\ub18d\ud611\ud558\ub098\ub85c\ub9c8\ud2b8 \uc2e0\uc7a5\uc9c0\uc810", "x": 126.354617122085, "y": 34.8394550116335}, "607": {"place_name": "\ub86f\ub370\uc288\ud37c\ud504\ub808\uc2dc \ud55c\ub9c8\uc74c\uc810", "x": 126.37969433743353, "y": 34.74508936953672}, "608": {"place_name": "\ud558\ub29824\uc2dc\ub9c8\ud2b8", "x": 126.388260005606, "y": 34.7883675357345}, "609": {"place_name": "\ucc9c\ub0e5&DC\ub9c8\ud2b8", "x": 126.384090357389, "y": 34.7864932368393}, "610": {"place_name": "\uc601\uc9c4\ud560\uc778\ub9c8\ud2b8", "x": 126.387352701204, "y": 34.7875408985083}, "611": {"place_name": "\uc601\uc554\ub9c8\ud2b8 \uc0bc\ud638\uc810", "x": 126.378681843656, "y": 34.7467320622399}, "612": {"place_name": "\ud55c\uc6b0\ub9ac\ub9c8\ud2b8\uace0 \uc131\uc2ec\uc810", "x": 126.38146348101104, "y": 34.786681829522614}, "613": {"place_name": "\uc2e0\uc548\ud560\uc778\ub9c8\ud2b8", "x": 126.38492004394, "y": 34.7833461477874}, "614": {"place_name": "\uc544\uc2dc\uc544\ub9c8\ud2b8", "x": 126.378013530406, "y": 34.7471658309477}, "615": {"place_name": "\ubca0\ud2b8\ub0a8\uc804\ubb38\ub9c8\ud2b8", "x": 126.376939660684, "y": 34.7483790373154}, "616": {"place_name": "\uc0c8\ud55c24\uc2dc\ud560\uc778\ub9c8\ud2b8", "x": 126.38089414247, "y": 34.7828939694327}, "617": {"place_name": "\uc544\uc774\ud2f0\ub9c8\ud2b8 \ubaa9\ud3ec\uc810", "x": 126.384463582085, "y": 34.7905225646898}, "618": {"place_name": "\uc0bc\ud638\ub9c8\ud2b8", "x": 126.381726115993, "y": 34.7450240734115}, "619": {"place_name": "\ud604\ub300\ub9c8\ud2b8", "x": 126.375055405849, "y": 34.7474202062988}, "620": {"place_name": "\uc0ac\ub791\uc560\ub9c8\ud2b8", "x": 126.380714611208, "y": 34.7447692456019}, "621": {"place_name": "\uc2e0\ud560\uc778\ub9c8\ud2b8", "x": 126.384983285645, "y": 34.7836574494108}, "622": {"place_name": "\uad7f\ud50c\ub7ec\uc2a4\ud611\ub3d9\uc870\ud569\ub9c8\ud2b8", "x": 126.38534085594756, "y": 34.78950661727897}, "623": {"place_name": "\ub0a8\ud765\ub9c8\ud2b8", "x": 126.382768524436, "y": 34.7826547023739}, "624": {"place_name": "\uc0bc\ud559\ub9c8\ud2b8", "x": 126.389283180926, "y": 34.7871143235245}, "625": {"place_name": "\ucf54\uc0ac\ub9c8\ud2b8\uc6a9\uc0b0\uc810", "x": 126.383382173932, "y": 34.7860786144547}, "626": {"place_name": "\uc900\ud560\uc778\ub9c8\ud2b8", "x": 126.400324212632, "y": 34.7887160173395}, "627": {"place_name": "\ud589\uc6b4\ub9c8\ud2b8", "x": 126.384860623836, "y": 34.7864935263139}, "628": {"place_name": "\ub3d9\uc544\ub9c8\ud2b8", "x": 126.383290295654, "y": 34.781982200253}, "629": {"place_name": "\ubd80\ub450\ub9c8\ud2b8", "x": 126.385463179135, "y": 34.7842106268441}, "630": {"place_name": "\uc6d0\ud48d\ub9c8\ud2b8", "x": 126.380935993655, "y": 34.7847501588235}, "631": {"place_name": "\ub3d9\uc0b0\ub9c8\ud2b8", "x": 126.39453242047, "y": 34.7883988980189}, "632": {"place_name": "\ud669\uc81c\ub9c8\ud2b8", "x": 126.404066928456, "y": 34.7903136475972}, "633": {"place_name": "\ubcf4\ub78c\uc57c\ucc44\ub9c8\ud2b8", "x": 126.381746213564, "y": 34.7867148147926}, "634": {"place_name": "DC\ub9c8\ud2b8 \uc11c\uc0b05\ud638\uc810", "x": 126.379718346986, "y": 34.7827789146512}, "635": {"place_name": "1\ucc28\ub9c8\ud2b8", "x": 126.36998266039, "y": 34.7464277667228}, "636": {"place_name": "\ucf54\uc0ac\ub9c8\ud2b8 \uc77c\uc2e0\ub9c8\ud2b8", "x": 126.383691572385, "y": 34.7844360332382}, "637": {"place_name": "\ud0dc\uc591\ub9c8\ud2b8", "x": 126.37053101887011, "y": 34.74784760587853}, "638": {"place_name": "\uc0bc\ud6384\ucc28\uc0bc\ud638\ub9c8\ud2b8", "x": 126.370944813545, "y": 34.7480047850761}, "639": {"place_name": "\uccad\ub8e1\ub9c8\ud2b8", "x": 126.391473535959, "y": 34.7887892725177}, "640": {"place_name": "\ucf54\uc0ac\ub9c8\ud2b8 \ub9cc\ud765\uc810", "x": 126.387691419057, "y": 34.7866520226551}, "641": {"place_name": "\ubcf5\uad8c\ud310\ub9e4\uc810 \uc0bc\ud638\ub9c8\ud2b8", "x": 126.379794259216, "y": 34.7460535679475}, "642": {"place_name": "\ub098\ub4e4\uac00\uac8c \uc6a9\uc0b0\ub9c8\ud2b8", "x": 126.383291406487, "y": 34.786089872777}, "643": {"place_name": "\ub098\ub4e4\uac00\uac8c \ud654\ub2c8\ub9c8\ud2b8", "x": 126.40029187409, "y": 34.7894099340344}, "644": {"place_name": "\ub098\ub4e4\uac00\uac8c \ud589\uc6b4\ub9c8\ud2b8", "x": 126.38481251198, "y": 34.7864986915473}, "645": {"place_name": "\uc6d0\uad11\uacf5\uad6c\ub9c8\ud2b8", "x": 126.43759509391718, "y": 34.768633142248824}, "646": {"place_name": "\uc900\ud560\uc778\ub9c8\ud2b8", "x": 126.400324212632, "y": 34.7887160173395}, "647": {"place_name": "\ud669\uc81c\ub9c8\ud2b8", "x": 126.404066928456, "y": 34.7903136475972}, "648": {"place_name": "\ub300\ubd88\ucf54\ud37c\ub808\uc774\uc158", "x": 126.42350873946, "y": 34.7724802423212}, "649": {"place_name": "\ub098\ub4e4\uac00\uac8c \ud654\ub2c8\ub9c8\ud2b8", "x": 126.40029187409, "y": 34.7894099340344}, "650": {"place_name": "\uc0bc\ud638\ub18d\ud611\ud558\ub098\ub85c\ub9c8\ud2b8", "x": 126.47272179476806, "y": 34.74852673150809}, "651": {"place_name": "\ub86f\ub370\uc288\ud37c\ud504\ub808\uc2dc \uc601\uc554\uc0bc\ud638\uac00\ub9f9\uc810", "x": 126.46572233707636, "y": 34.74636620025583}, "652": {"place_name": "\ud558\ub098\ub85c\ub9c8\ud2b8 \uacf5\ub2e8\uc810", "x": 126.455895010073, "y": 34.7550122467119}, "653": {"place_name": "\ud30c\uba38\uc2a4\uc2dd\uc790\uc7ac\ub9c8\ud2b8 \uc0bc\ud638\uc810", "x": 126.456852171232, "y": 34.75494801289433}, "654": {"place_name": "\uc0bc\ud638\uc2dd\uc790\uc7ac\ub9c8\ud2b8", "x": 126.45347274890057, "y": 34.753825966792114}, "655": {"place_name": "\uc6b0\ub9ac\ub9c8\ud2b8", "x": 126.454539203647, "y": 34.7575679748997}, "656": {"place_name": "\uc0bc\uc131\ub9c8\ud2b8", "x": 126.46002199342016, "y": 34.75355231131151}, "657": {"place_name": "\ub300\ubd88\ub9c8\ud2b8", "x": 126.455357981324, "y": 34.7559617301015}, "658": {"place_name": "JK\uc544\uc2dc\uc544\ub9c8\ud2b8", "x": 126.453494706169, "y": 34.7549690474738}, "659": {"place_name": "\uc0bc\ud638\uc8fc\uacf5\ub9c8\ud2b8", "x": 126.473896209646, "y": 34.7453597571752}, "660": {"place_name": "\uc544\uc2dc\uc544\ub9c8\ud2b8", "x": 126.452776842933, "y": 34.7566712823546}, "661": {"place_name": "\uc544\uc2dc\uc544\uc6d4\ub4dc\ub9c8\ud2b8", "x": 126.453727645522, "y": 34.7554198939354}, "662": {"place_name": "\uc57c\ubbf8\ub9c8\ud2b8", "x": 126.45534937003652, "y": 34.75228305528658}, "663": {"place_name": "\ud604\ub300\uc885\ud569\ub9c8\ud2b8", "x": 126.455093504491, "y": 34.7523296851695}, "664": {"place_name": "\ub274\uc544\uc2dc\uc544\ub9c8\ud2b8", "x": 126.454015717968, "y": 34.752140970943}, "665": {"place_name": "\uc6d0\uad11\uacf5\uad6c\ub9c8\ud2b8", "x": 126.43759509391718, "y": 34.768633142248824}, "666": {"place_name": "\uc6a9\ub9c8\ud2b8", "x": 126.451253598416, "y": 34.7556260088727}, "667": {"place_name": "\uc2a4\ud0c0\uacf5\uad6c\ub9c8\ud2b8", "x": 126.452072376728, "y": 34.7566717201483}, "668": {"place_name": "\ud038\uc2a4\ube4c\ub9c8\ud2b8", "x": 126.465705513872, "y": 34.7460957042577}, "669": {"place_name": "\uc8fc\uacf52\ucc28\ub9c8\ud2b8", "x": 126.475388625761, "y": 34.7455969554053}, "670": {"place_name": "\uc601\uc554\ud560\uc778\ub9c8\ud2b8", "x": 126.451512316432, "y": 34.7548195153667}, "671": {"place_name": "\ubbfc\uc900\ub9c8\ud2b8", "x": 126.454474034729, "y": 34.7538593014284}, "672": {"place_name": "\ud61c\uc131\ub9c8\ud2b8", "x": 126.453283700673, "y": 34.7525162772045}, "673": {"place_name": "\uc0bc\ud638\ud560\uc778\ub9c8\ud2b8", "x": 126.4728468823707, "y": 34.74413651628555}, "674": {"place_name": "\ud558\ub098\ub9c8\ud2b8", "x": 126.4567143024205, "y": 34.75298593906155}, "675": {"place_name": "\ud558\ub098\ub85c\ub9c8\ud2b8\uc2dd\uc790\uc7ac\ud310\ub9e4\uc7a5", "x": 126.473307146977, "y": 34.7486996304475}, "676": {"place_name": "\ud55c\ubca0\ub9c8\ud2b8", "x": 126.454772415009, "y": 34.7533270055916}, "677": {"place_name": "\uc885\uc6d0\ub9c8\ud2b8", "x": 126.47448991731989, "y": 34.74783127614966}, "678": {"place_name": "\uc194\ub9c8\ud2b8", "x": 126.468984926536, "y": 34.7455872308559}, "679": {"place_name": "\uce74\uc548\ub2c8\uc789\ub9c8\ud2b8", "x": 126.454502773644, "y": 34.7524784766265}, "680": {"place_name": "\uae08\ud638\ucd95\uc0b0\ub9c8\ud2b8", "x": 126.460123996565, "y": 34.7538213825374}, "681": {"place_name": "\uc6d4\ub4dc\ub9c8\ud2b8", "x": 126.454637406161, "y": 34.7565858831526}, "682": {"place_name": "\ube45C\ub9c8\ud2b8", "x": 126.454567497713, "y": 34.7567532314071}, "683": {"place_name": "\ud589\ubcf5\ub9c8\ud2b8", "x": 126.452788900593, "y": 34.7550091453081}, "684": {"place_name": "\ube14\ub9ac\uc2a4\ub9c8\ud2b8", "x": 126.452781778719, "y": 34.7559231382561}, "685": {"place_name": "\ud55c\uc591\ub9c8\ud2b8", "x": 126.462816764678, "y": 34.7469807982433}, "686": {"place_name": "\ud0c0\uc774\ud478\ub4dc\ub9c8\ud2b8", "x": 126.455407664133, "y": 34.7515549799951}, "687": {"place_name": "\ub809\uc9c0\uc548\ub9c8\ud2b8", "x": 126.461176091623, "y": 34.7586431538923}, "688": {"place_name": "\uc138\uc790\ub9e4DC\ub9c8\ud2b8", "x": 126.475515782165, "y": 34.7462122632371}, "689": {"place_name": "\ub9ac\ud0c0 \uc544\uc138\uc548 \ub9c8\ud2b8", "x": 126.453528104576, "y": 34.7532150622169}, "690": {"place_name": "\uc0bc\ud638\ub18d\ud611\ud558\ub098\ub85c\ub9c8\ud2b8 \uc804\uae30\ucc28\ucda9\uc804\uc18c", "x": 126.47310917099335, "y": 34.748576182675954}, "691": {"place_name": "CU \uc0bc\ud638\uc911\uc559\uc810", "x": 126.46622147402, "y": 34.7453371788771}, "692": {"place_name": "\ud558\ub098\uc740\ud589365 \uc0bc\ud638\uc2dd\uc790\uc7ac\ub9c8\ud2b8", "x": 126.453482506731, "y": 34.7538368274516}, "693": {"place_name": "\uc6b0\ub9ac\ub3d9\ub124 \ub300\ubd88DC\ub9c8\ud2b8\uc810", "x": 126.453109216292, "y": 34.7551277669814}, "694": {"place_name": "\uc0bc\ud638\ub18d\ud611\ud558\ub098\ub85c\ub9c8\ud2b8", "x": 126.47272179476806, "y": 34.74852673150809}, "695": {"place_name": "\ub86f\ub370\uc288\ud37c\ud504\ub808\uc2dc \uc601\uc554\uc0bc\ud638\uac00\ub9f9\uc810", "x": 126.46572233707636, "y": 34.74636620025583}, "696": {"place_name": "\uc0bc\uc131\ub9c8\ud2b8", "x": 126.46002199342016, "y": 34.75355231131151}, "697": {"place_name": "\uc0bc\ud638\uc8fc\uacf5\ub9c8\ud2b8", "x": 126.473896209646, "y": 34.7453597571752}, "698": {"place_name": "\ud038\uc2a4\ube4c\ub9c8\ud2b8", "x": 126.465705513872, "y": 34.7460957042577}, "699": {"place_name": "\uc8fc\uacf52\ucc28\ub9c8\ud2b8", "x": 126.475388625761, "y": 34.7455969554053}, "700": {"place_name": "\uc0bc\ud638\ud560\uc778\ub9c8\ud2b8", "x": 126.4728468823707, "y": 34.74413651628555}, "701": {"place_name": "\ud558\ub098\ub85c\ub9c8\ud2b8\uc2dd\uc790\uc7ac\ud310\ub9e4\uc7a5", "x": 126.473307146977, "y": 34.7486996304475}, "702": {"place_name": "\uc885\uc6d0\ub9c8\ud2b8", "x": 126.47448991731989, "y": 34.74783127614966}, "703": {"place_name": "\uc194\ub9c8\ud2b8", "x": 126.468984926536, "y": 34.7455872308559}, "704": {"place_name": "\uae08\ud638\ucd95\uc0b0\ub9c8\ud2b8", "x": 126.460123996565, "y": 34.7538213825374}, "705": {"place_name": "\uba39\uc2f8\ub9c8\ud2b8", "x": 126.48502663443686, "y": 34.75129172114224}, "706": {"place_name": "\ud55c\uc591\ub9c8\ud2b8", "x": 126.462816764678, "y": 34.7469807982433}, "707": {"place_name": "\ub809\uc9c0\uc548\ub9c8\ud2b8", "x": 126.461176091623, "y": 34.7586431538923}, "708": {"place_name": "\uc138\uc790\ub9e4DC\ub9c8\ud2b8", "x": 126.475515782165, "y": 34.7462122632371}, "709": {"place_name": "\uc0bc\ud638\ub18d\ud611\ud558\ub098\ub85c\ub9c8\ud2b8 \uc804\uae30\ucc28\ucda9\uc804\uc18c", "x": 126.47310917099335, "y": 34.748576182675954}, "710": {"place_name": "CU \uc0bc\ud638\uc911\uc559\uc810", "x": 126.46622147402, "y": 34.7453371788771}, "711": {"place_name": "\ub86f\ub370\ub9c8\ud2b8 \ub9e5\uc2a4 \ubaa9\ud3ec\uc810", "x": 126.429394588792, "y": 34.797227955998}, "712": {"place_name": "\ub9d8\ub9c8\ud2b8 \uc81c\uc77c\uc810", "x": 126.439139151195, "y": 34.8003461183542}, "713": {"place_name": "\ub85c\ub610\ub9c8\ud2b8", "x": 126.432125835338, "y": 34.8011347686699}, "714": {"place_name": "\uc2dc\ub108\ubc14\uc288\uc988\ub9c8\ud2b8", "x": 126.429940350898, "y": 34.798902606396}, "715": {"place_name": "\uc2e0\uc6d0\uc0b0\uc5c5\uacf5\uad6c\ub9c8\ud2b8", "x": 126.43664877867421, "y": 34.80194631512399}, "716": {"place_name": "\ud55c\uc6b0\ub9ac\ub9c8\ud2b8 \uc6b0\ubbf8\ud3c9\ud654\uc810", "x": 126.434076286562, "y": 34.8003578354349}, "717": {"place_name": "\uc544\ub378\ub9ac\uc6c0\ub9c8\ud2b8", "x": 126.446816325891, "y": 34.8064882271539}, "718": {"place_name": "\ub9c8\ud2b8\ud074\ub85c\ubc84", "x": 126.430392997553, "y": 34.803949846514}, "719": {"place_name": "\uc591\uc9c0\ub9c8\ud2b8", "x": 126.428592255016, "y": 34.7994848970665}, "720": {"place_name": "\ud604\ub300\ud560\uc778\ub9c8\ud2b8", "x": 126.428245717538, "y": 34.8066259390355}, "721": {"place_name": "\ud0c0\uc774\ud0c0\uc774 \ubaa9\ud3ec\ub9c8\ud2b8", "x": 126.434876241274, "y": 34.798428955654}, "722": {"place_name": "\uc6b0\ubbf85\ucc28\ub9c8\ud2b8", "x": 126.427363816719, "y": 34.7957184919835}, "723": {"place_name": "\uc81c\uc77c\ub9c8\ud2b8", "x": 126.439168636645, "y": 34.8003489584276}, "724": {"place_name": "\ubd80\uc601\ub098\uc774\uc2a4\ub9c8\ud2b8", "x": 126.430668915233, "y": 34.8032372312197}, "725": {"place_name": "\uc81c\uc77c\ud558\uc774\ube4c\ub9c8\ud2b8", "x": 126.43153504381294, "y": 34.806169918624455}, "726": {"place_name": "\uad7f\ubaa8\ub2dd \ud560\uc778\ub9c8\ud2b8", "x": 126.433342617492, "y": 34.8053697959854}, "727": {"place_name": "\ud3c9\ud654\ub9c8\ud2b8", "x": 126.436274958413, "y": 34.7997118219572}, "728": {"place_name": "\ub2e4\uc774\uc18c \ub86f\ub370\ub9c8\ud2b8\ubaa9\ud3ec\uc810", "x": 126.429472889834, "y": 34.7972824069495}, "729": {"place_name": "CU \ubaa9\ud3ec\uc2dc\ub124\ub9c8\uc810", "x": 126.433099246047, "y": 34.7994158345939}, "730": {"place_name": "CU \ud558\ub2f9\ubd80\uc601\uc810", "x": 126.430134676449, "y": 34.803375348676}, "731": {"place_name": "\uc624\ud1a0\uc624\uc544\uc2dc\uc2a4 \ub86f\ub370\ub9c8\ud2b8\ubaa9\ud3ec\uc810", "x": 126.429376807664, "y": 34.7972711397302}, "732": {"place_name": "\ub098\ub4e4\uac00\uac8c \uac1c\ubbf8\ub9c8\ud2b8", "x": 126.432057960236, "y": 34.8013120272298}, "733": {"place_name": "\ub358\ud0a8 \ubaa9\ud3ec\ub86f\ub370\ub9c8\ud2b8\ub9e5\uc2a4\uc810", "x": 126.429468767455, "y": 34.7972463317099}, "734": {"place_name": "\uc3d8\uce74\uc874 \ub86f\ub370\ub9c8\ud2b8 \ubaa9\ud3ec\uc810 \uc606", "x": 126.43027065934582, "y": 34.798064951811014}, "735": {"place_name": "\ub098\ub4e4\uac00\uac8c \uc591\uc9c0\ub9c8\ud2b8", "x": 126.428537681286, "y": 34.7994756268503}, "736": {"place_name": "\uc544\uac00\ubc29\uac24\ub7ec\ub9ac \ub86f\ub370\ub9c8\ud2b8\ub9e5\uc2a4 \ubaa9\ud3ec\uc810", "x": 126.429460025941, "y": 34.7972462907314}, "737": {"place_name": "\ub098\ub4e4\uac00\uac8c \uc81c\uc77c\ud558\uc774\ube4c\ub9c8\ud2b8", "x": 126.431711101048, "y": 34.8063131615916}, "738": {"place_name": "\ub098\ub4e4\uac00\uac8c \uc2e0\uc548\ub9c8\ud2b8", "x": 126.42739581162, "y": 34.7986770299978}, "739": {"place_name": "\ub86f\ub370ATM \ub86f\ub370\ub9c8\ud2b8 \ubaa9\ud3ec1\uce35 2", "x": 126.429403081896, "y": 34.7972640517315}, "740": {"place_name": "\ub86f\ub370ATM \ub86f\ub370\ub9c8\ud2b8\ub9e5\uc2a4 \ubaa9\ud3ec1\uce352", "x": 126.429468767455, "y": 34.7972463317099}, "741": {"place_name": "\ub86f\ub370ATM \ub86f\ub370\ub9c8\ud2b8\ub9e5\uc2a4 \ubaa9\ud3ec1\uce353", "x": 126.429468767455, "y": 34.7972463317099}, "742": {"place_name": "\uc528\ucc44\ub110\uc548\uacbd \ub86f\ub370\ub9c8\ud2b8\ubaa9\ud3ec\uc810", "x": 126.429467674766, "y": 34.7972463265876}, "743": {"place_name": "\ud2b8\ub798\ucee4 \ub86f\ub370\ub9c8\ud2b8\ub9e5\uc2a4 \ubaa9\ud3ec\uc810", "x": 126.429467674766, "y": 34.7972463265876}, "744": {"place_name": "\ub86f\ub370ATM \ub86f\ub370\ub9c8\ud2b8 \ubaa9\ud3ec1\uce35 3", "x": 126.429403081896, "y": 34.7972640517315}, "745": {"place_name": "\ubbfc\ud303ATM \ub86f\ub370\ub9c8\ud2b8\ubaa9\ud3ec\uc810", "x": 126.429468767455, "y": 34.7972463317099}, "746": {"place_name": "\ub86f\ub370\ub9c8\ud2b8 \ub0a8\uc545\uc810", "x": 126.465642224698, "y": 34.802686418948035}, "747": {"place_name": "ABC\ub9c8\ud2b8 ST\ub0a8\uc545\ub86f\ub370\uc544\uc6b8\ub81b\uc810", "x": 126.46425316030883, "y": 34.80321123582573}, "748": {"place_name": "\uc544\ub378\ub9ac\uc6c0\ub9c8\ud2b8", "x": 126.446816325891, "y": 34.8064882271539}, "749": {"place_name": "\ub2e4\uc774\uc18c \ub86f\ub370\ub9c8\ud2b8\ub0a8\uc545\uc810", "x": 126.465720514294, "y": 34.8027471564126}, "750": {"place_name": "\ud1a0\uc774\uc800\ub7ec\uc2a4 \ub86f\ub370\ub9c8\ud2b8\ub0a8\uc545\uc810", "x": 126.465659854401, "y": 34.8026639613805}, "751": {"place_name": "\ub358\ud0a8 \ubb34\uc548\ub0a8\uc545\ub86f\ub370\ub9c8\ud2b8\uc810", "x": 126.46535031604246, "y": 34.80270677045246}, "752": {"place_name": "\ub124\uc774\ucc98\ub9ac\ud37c\ube14\ub9ad \ub86f\ub370\ub9c8\ud2b8\ub0a8\uc545", "x": 126.46571163837183, "y": 34.80276784962234}, "753": {"place_name": "\ubbf8\uc0e4 \ub86f\ub370\ub9c8\ud2b8\ub0a8\uc545\uc810", "x": 126.464710365746, "y": 34.8034854701669}, "754": {"place_name": "\ubabb\ub41c\uace0\uc591\uc774 \ubaa9\ud3ec\ub0a8\uc545\ub86f\ub370\ub9c8\ud2b8\uc810", "x": 126.465744758757, "y": 34.8027157138828}, "755": {"place_name": "\ud640\ub9ac\uce74\ud640\ub9ac\uce74 \ub86f\ub370\ub9c8\ud2b8\ub0a8\uc545\uc810", "x": 126.46576076644271, "y": 34.802775276489626}, "756": {"place_name": "\ub354\uc0d8 \ub86f\ub370\ub9c8\ud2b8\ub0a8\uc545\uc810", "x": 126.46487076528197, "y": 34.803523132936576}, "757": {"place_name": "\ud1a0\ub2c8\ubaa8\ub9ac \ub86f\ub370\ub9c8\ud2b8\ub0a8\uc545\uc810", "x": 126.46572031654468, "y": 34.802777803110494}, "758": {"place_name": "\uc774\ub514\uc57c\ucee4\ud53c \ubb34\uc548\ub0a8\uc545\ub86f\ub370\ub9c8\ud2b8\uc810", "x": 126.464710365746, "y": 34.8034854701669}, "759": {"place_name": "\ub86f\ub370ATM \ub86f\ub370\ub9c8\ud2b8 \ub0a8\uc5451\uce35 1", "x": 126.46564550799805, "y": 34.80285499497654}, "760": {"place_name": "\uc624\uac00\ub2e4 \ub86f\ub370\ub9c8\ud2b8\ubb34\uc548\ub0a8\uc545\uc810", "x": 126.465729694905, "y": 34.802848604103936}, "761": {"place_name": "\ubbfc\ud303ATM \ub86f\ub370\ub9c8\ud2b8\ub0a8\uc545\uc810", "x": 126.464710365746, "y": 34.8034854701669}, "762": {"place_name": "\ucf5c\ub9ac\uc62c\ub9ac \ub86f\ub370\ub9c8\ud2b8\ub0a8\uc545\uc810", "x": 126.464709278796, "y": 34.8034845639871}, "763": {"place_name": "\ube60\ubba4 \ub86f\ub370\ub9c8\ud2b8 \ub0a8\uc545\uc810", "x": 126.464710365746, "y": 34.8034854701669}, "764": {"place_name": "\uc5d4\ud504\ub77c\ub2c8 \ub86f\ub370\ub9c8\ud2b8\ub0a8\uc545\uc810", "x": 126.464714433842, "y": 34.8035323608001}, "765": {"place_name": "\ub514\uc5b4\ubca0\uc774\ube44 \ub86f\ub370\ub9c8\ud2b8\ub0a8\uc545\uc810", "x": 126.46564922758, "y": 34.8029559679938}, "766": {"place_name": "\ub86f\ub370\ub9c8\ud2b8 \ub0a8\uc545\uc810", "x": 126.465642224698, "y": 34.802686418948035}, "767": {"place_name": "\ud558\ub098\ub85c\ub9c8\ud2b8 \ub0a8\uc545\uc810", "x": 126.46060788308398, "y": 34.81372886954624}, "768": {"place_name": "\ud143\ubc2d \ub0a8\uc545\uc810", "x": 126.458648637655, "y": 34.8140014046365}, "769": {"place_name": "\uc9c0\uc5e0\ub9c8\ud2b8", "x": 126.466390010317, "y": 34.8094204430272}, "770": {"place_name": "\ubaa8\uc544\ud560\uc778\ub9c8\ud2b8", "x": 126.459208345795, "y": 34.8079609249324}, "771": {"place_name": "\uc54c\uc774\uc368\ubc0b", "x": 126.45865111236857, "y": 34.813957247194146}, "772": {"place_name": "ABC\ub9c8\ud2b8 ST\ub0a8\uc545\ub86f\ub370\uc544\uc6b8\ub81b\uc810", "x": 126.46425316030883, "y": 34.80321123582573}, "773": {"place_name": "\uc138\uc885 \ucca0\ubb3c\uc548\uc804\uacf5\uad6c\ud560\uc778\ub9c8\ud2b8", "x": 126.4598938275464, "y": 34.807419524908056}, "774": {"place_name": "\uc625\uc554\uc8fc\uacf52\ucc28\ub9c8\ud2b8", "x": 126.45063173132, "y": 34.8118814445299}, "775": {"place_name": "\ud55c\ube5b\ucca0\ubb3c\ub9c8\ud2b8 \ub0a8\uc545\uc810", "x": 126.46507545098589, "y": 34.81412717837063}, "776": {"place_name": "\uc640\uc774\ub9c8\ud2b8 \ubaa9\ud3ec\uc810", "x": 126.445572961027, "y": 34.8100340734779}, "777": {"place_name": "\ub9d8\ub9c8\ud2b8 \ub0a8\uc545\uc810", "x": 126.472563556364, "y": 34.8118495840007}, "778": {"place_name": "SM\ub9c8\ud2b8 \ub0a8\uc545\uc810", "x": 126.459843715627, "y": 34.8084000234414}, "779": {"place_name": "\uadfc\ud654\ud50c\ub7ec\uc2a4\ub9c8\ud2b8", "x": 126.471867799392, "y": 34.8073278565423}, "780": {"place_name": "\uc544\ub378\ub9ac\uc6c0\ub9c8\ud2b8", "x": 126.446816325891, "y": 34.8064882271539}, "781": {"place_name": "\ud604\ub300\uc544\uc774\ud30c\ud06c\ub9c8\ud2b8", "x": 126.456393597731, "y": 34.8118820821625}, "782": {"place_name": "\ub0a8\uc545\ubd80\uc601\ub9c8\ud2b8", "x": 126.472641551327, "y": 34.8121302568193}, "783": {"place_name": "\ud55c\uc6b0\ub9ac\ub9c8\ud2b8\uace0 \ub0a8\uc545\uc810", "x": 126.475179262321, "y": 34.8098985494958}, "784": {"place_name": "\uace8\ub4dc\ud074\ub798\uc2a4\ub9c8\ud2b8", "x": 126.448355656451, "y": 34.8070540812872}, "785": {"place_name": "\uc625\uc554\ucd95\uc0b0\ub9c8\ud2b8", "x": 126.45016785583, "y": 34.8112952441969}, "786": {"place_name": "\ub0a8\uc545\ub9ac\uc820\uc2dc\ube4c\ub9c8\ud2b8", "x": 126.466939934425, "y": 34.8102377170507}, "787": {"place_name": "\uc544\uc774\uc9c0\uc5d0\uc774\ub9c8\ud2b8 \uc720\ud0d1\uc810", "x": 126.467776836232, "y": 34.8140173353809}, "788": {"place_name": "\ud558\ub098\ub85c\ub9c8\ud2b8 \ub0a8\uc545\uc810 \uc8fc\ucc28\uc7a5", "x": 126.460652687028, "y": 34.8138976294062}, "789": {"place_name": "\uc18c\ubcf4\ub8e8\uce58\ud0a8\ub9c8\ud2b8 \ub0a8\uc545\uc810", "x": 126.459776984922, "y": 34.8125966342319}, "790": {"place_name": "\ub2e4\uc774\uc18c \ub86f\ub370\ub9c8\ud2b8\ub0a8\uc545\uc810", "x": 126.465720514294, "y": 34.8027471564126}, "791": {"place_name": "\ud1a0\uc774\uc800\ub7ec\uc2a4 \ub86f\ub370\ub9c8\ud2b8\ub0a8\uc545\uc810", "x": 126.465659854401, "y": 34.8026639613805}, "792": {"place_name": "\ub358\ud0a8 \ubb34\uc548\ub0a8\uc545\ub86f\ub370\ub9c8\ud2b8\uc810", "x": 126.46535031604246, "y": 34.80270677045246}, "793": {"place_name": "\ub124\uc774\ucc98\ub9ac\ud37c\ube14\ub9ad \ub86f\ub370\ub9c8\ud2b8\ub0a8\uc545", "x": 126.46571163837183, "y": 34.80276784962234}, "794": {"place_name": "\ubbf8\uc0e4 \ub86f\ub370\ub9c8\ud2b8\ub0a8\uc545\uc810", "x": 126.464710365746, "y": 34.8034854701669}, "795": {"place_name": "\ubcf5\uad8c\ud310\ub9e4\uc810 \uc8fc\uacf5\ub9c8\ud2b8\uc810", "x": 126.45060108264, "y": 34.811888517331}, "796": {"place_name": "\ubabb\ub41c\uace0\uc591\uc774 \ubaa9\ud3ec\ub0a8\uc545\ub86f\ub370\ub9c8\ud2b8\uc810", "x": 126.465744758757, "y": 34.8027157138828}, "797": {"place_name": "\ud640\ub9ac\uce74\ud640\ub9ac\uce74 \ub86f\ub370\ub9c8\ud2b8\ub0a8\uc545\uc810", "x": 126.46576076644271, "y": 34.802775276489626}, "798": {"place_name": "\ub354\uc0d8 \ub86f\ub370\ub9c8\ud2b8\ub0a8\uc545\uc810", "x": 126.46487076528197, "y": 34.803523132936576}, "799": {"place_name": "\ud1a0\ub2c8\ubaa8\ub9ac \ub86f\ub370\ub9c8\ud2b8\ub0a8\uc545\uc810", "x": 126.46572031654468, "y": 34.802777803110494}, "800": {"place_name": "\uc774\ub514\uc57c\ucee4\ud53c \ubb34\uc548\ub0a8\uc545\ub86f\ub370\ub9c8\ud2b8\uc810", "x": 126.464710365746, "y": 34.8034854701669}, "801": {"place_name": "\ub86f\ub370ATM \ub86f\ub370\ub9c8\ud2b8 \ub0a8\uc5451\uce35 1", "x": 126.46564550799805, "y": 34.80285499497654}, "802": {"place_name": "\ub098\ub4e4\uac00\uac8c \uc8fc\uacf52\ucc28\ub9c8\ud2b8", "x": 126.4506109246, "y": 34.8118876603699}, "803": {"place_name": "\uc0bc\ubbf8\uc720\ud1b5 \uc9c4\ub85c\ub9c8\ud2b8", "x": 126.44789058774089, "y": 34.80796418631441}, "804": {"place_name": "\uc624\uac00\ub2e4 \ub86f\ub370\ub9c8\ud2b8\ubb34\uc548\ub0a8\uc545\uc810", "x": 126.465729694905, "y": 34.802848604103936}, "805": {"place_name": "\ubbfc\ud303ATM \ub86f\ub370\ub9c8\ud2b8\ub0a8\uc545\uc810", "x": 126.464710365746, "y": 34.8034854701669}, "806": {"place_name": "\ucf5c\ub9ac\uc62c\ub9ac \ub86f\ub370\ub9c8\ud2b8\ub0a8\uc545\uc810", "x": 126.464709278796, "y": 34.8034845639871}, "807": {"place_name": "\ube60\ubba4 \ub86f\ub370\ub9c8\ud2b8 \ub0a8\uc545\uc810", "x": 126.464710365746, "y": 34.8034854701669}, "808": {"place_name": "\uc5d4\ud504\ub77c\ub2c8 \ub86f\ub370\ub9c8\ud2b8\ub0a8\uc545\uc810", "x": 126.464714433842, "y": 34.8035323608001}, "809": {"place_name": "\ub514\uc5b4\ubca0\uc774\ube44 \ub86f\ub370\ub9c8\ud2b8\ub0a8\uc545\uc810", "x": 126.46564922758, "y": 34.8029559679938}, "810": {"place_name": "\ub86f\ub370\ub9c8\ud2b8 \ub0a8\uc545\uc810", "x": 126.465642224698, "y": 34.802686418948035}, "811": {"place_name": "\ud558\ub098\ub85c\ub9c8\ud2b8 \ub0a8\uc545\uc810", "x": 126.46060788308398, "y": 34.81372886954624}, "812": {"place_name": "\uc774\ub9c8\ud2b8\uc5d0\ube0c\ub9ac\ub370\uc774 \ubb34\uc548\uc624\ub8e1\uc810", "x": 126.48399197652, "y": 34.8050515559448}, "813": {"place_name": "\ub86f\ub370\uc288\ud37c\ud504\ub808\uc2dc \uc624\ub8e1\uc810", "x": 126.484538160704, "y": 34.8080726572045}, "814": {"place_name": "\ud143\ubc2d \ub0a8\uc545\uc810", "x": 126.458648637655, "y": 34.8140014046365}, "815": {"place_name": "\uc9c0\uc5e0\ub9c8\ud2b8", "x": 126.466390010317, "y": 34.8094204430272}, "816": {"place_name": "\ubaa8\uc544\ud560\uc778\ub9c8\ud2b8", "x": 126.459208345795, "y": 34.8079609249324}, "817": {"place_name": "\uc54c\uc774\uc368\ubc0b", "x": 126.45865111236857, "y": 34.813957247194146}, "818": {"place_name": "ABC\ub9c8\ud2b8 ST\ub0a8\uc545\ub86f\ub370\uc544\uc6b8\ub81b\uc810", "x": 126.46425316030883, "y": 34.80321123582573}, "819": {"place_name": "\uc138\uc885 \ucca0\ubb3c\uc548\uc804\uacf5\uad6c\ud560\uc778\ub9c8\ud2b8", "x": 126.4598938275464, "y": 34.807419524908056}, "820": {"place_name": "\ud55c\ube5b\ucca0\ubb3c\ub9c8\ud2b8 \ub0a8\uc545\uc810", "x": 126.46507545098589, "y": 34.81412717837063}, "821": {"place_name": "\ub9d8\ub9c8\ud2b8 \ub0a8\uc545\uc810", "x": 126.472563556364, "y": 34.8118495840007}, "822": {"place_name": "SM\ub9c8\ud2b8 \ub0a8\uc545\uc810", "x": 126.459843715627, "y": 34.8084000234414}, "823": {"place_name": "\uadfc\ud654\ud50c\ub7ec\uc2a4\ub9c8\ud2b8", "x": 126.471867799392, "y": 34.8073278565423}, "824": {"place_name": "\ud48d\uacbd\ub9c8\ud2b8", "x": 126.480079483567, "y": 34.8104712407613}, "825": {"place_name": "\ub0a8\uc545\ubd80\uc601\ub9c8\ud2b8", "x": 126.472641551327, "y": 34.8121302568193}, "826": {"place_name": "\ud55c\uc6b0\ub9ac\ub9c8\ud2b8\uace0 \ub0a8\uc545\uc810", "x": 126.475179262321, "y": 34.8098985494958}, "827": {"place_name": "\ub0a8\uc545\ub9ac\uc820\uc2dc\ube4c\ub9c8\ud2b8", "x": 126.466939934425, "y": 34.8102377170507}, "828": {"place_name": "\uc544\uc774\uc9c0\uc5d0\uc774\ub9c8\ud2b8 \uc720\ud0d1\uc810", "x": 126.467776836232, "y": 34.8140173353809}, "829": {"place_name": "\ud558\ub098\ub85c\ub9c8\ud2b8 \ub0a8\uc545\uc810 \uc8fc\ucc28\uc7a5", "x": 126.460652687028, "y": 34.8138976294062}, "830": {"place_name": "\uc18c\ubcf4\ub8e8\uce58\ud0a8\ub9c8\ud2b8 \ub0a8\uc545\uc810", "x": 126.459776984922, "y": 34.8125966342319}, "831": {"place_name": "\ub2e4\uc774\uc18c \ub86f\ub370\ub9c8\ud2b8\ub0a8\uc545\uc810", "x": 126.465720514294, "y": 34.8027471564126}, "832": {"place_name": "\ud1a0\uc774\uc800\ub7ec\uc2a4 \ub86f\ub370\ub9c8\ud2b8\ub0a8\uc545\uc810", "x": 126.465659854401, "y": 34.8026639613805}, "833": {"place_name": "\ub358\ud0a8 \ubb34\uc548\ub0a8\uc545\ub86f\ub370\ub9c8\ud2b8\uc810", "x": 126.46535031604246, "y": 34.80270677045246}, "834": {"place_name": "\ub124\uc774\ucc98\ub9ac\ud37c\ube14\ub9ad \ub86f\ub370\ub9c8\ud2b8\ub0a8\uc545", "x": 126.46571163837183, "y": 34.80276784962234}, "835": {"place_name": "\ubbf8\uc0e4 \ub86f\ub370\ub9c8\ud2b8\ub0a8\uc545\uc810", "x": 126.464710365746, "y": 34.8034854701669}, "836": {"place_name": "\ubabb\ub41c\uace0\uc591\uc774 \ubaa9\ud3ec\ub0a8\uc545\ub86f\ub370\ub9c8\ud2b8\uc810", "x": 126.465744758757, "y": 34.8027157138828}, "837": {"place_name": "\ud640\ub9ac\uce74\ud640\ub9ac\uce74 \ub86f\ub370\ub9c8\ud2b8\ub0a8\uc545\uc810", "x": 126.46576076644271, "y": 34.802775276489626}, "838": {"place_name": "\ub354\uc0d8 \ub86f\ub370\ub9c8\ud2b8\ub0a8\uc545\uc810", "x": 126.46487076528197, "y": 34.803523132936576}, "839": {"place_name": "\ud1a0\ub2c8\ubaa8\ub9ac \ub86f\ub370\ub9c8\ud2b8\ub0a8\uc545\uc810", "x": 126.46572031654468, "y": 34.802777803110494}, "840": {"place_name": "\uc774\ub514\uc57c\ucee4\ud53c \ubb34\uc548\ub0a8\uc545\ub86f\ub370\ub9c8\ud2b8\uc810", "x": 126.464710365746, "y": 34.8034854701669}, "841": {"place_name": "\ub86f\ub370ATM \ub86f\ub370\ub9c8\ud2b8 \ub0a8\uc5451\uce35 1", "x": 126.46564550799805, "y": 34.80285499497654}, "842": {"place_name": "\uc624\uac00\ub2e4 \ub86f\ub370\ub9c8\ud2b8\ubb34\uc548\ub0a8\uc545\uc810", "x": 126.465729694905, "y": 34.802848604103936}, "843": {"place_name": "\ubbfc\ud303ATM \ub86f\ub370\ub9c8\ud2b8\ub0a8\uc545\uc810", "x": 126.464710365746, "y": 34.8034854701669}, "844": {"place_name": "\ucf5c\ub9ac\uc62c\ub9ac \ub86f\ub370\ub9c8\ud2b8\ub0a8\uc545\uc810", "x": 126.464709278796, "y": 34.8034845639871}, "845": {"place_name": "\ube60\ubba4 \ub86f\ub370\ub9c8\ud2b8 \ub0a8\uc545\uc810", "x": 126.464710365746, "y": 34.8034854701669}, "846": {"place_name": "\uc5d4\ud504\ub77c\ub2c8 \ub86f\ub370\ub9c8\ud2b8\ub0a8\uc545\uc810", "x": 126.464714433842, "y": 34.8035323608001}, "847": {"place_name": "\ub514\uc5b4\ubca0\uc774\ube44 \ub86f\ub370\ub9c8\ud2b8\ub0a8\uc545\uc810", "x": 126.46564922758, "y": 34.8029559679938}, "848": {"place_name": "\ub86f\ub370\uc288\ud37c \ubaa9\ud3ec\uc6a9\ud574\uc810", "x": 126.391425990968, "y": 34.8196419722467}, "849": {"place_name": "\ub298\ud478\ub978\ub9c8\ud2b8", "x": 126.394954735574, "y": 34.820622258402}, "850": {"place_name": "G\ub9c8\ud2b8 \uc8fc\ucc28\uc7a5", "x": 126.391477514081, "y": 34.8194727681651}, "851": {"place_name": "\uc8fc\uacf5\uc815\ub9c8\ud2b8", "x": 126.3945638884518, "y": 34.82041028969872}, "852": {"place_name": "\ub86f\ub370\uc288\ud37c \ubaa9\ud3ec\uc6a9\ud574\uc810", "x": 126.391425990968, "y": 34.8196419722467}, "853": {"place_name": "\ub298\ud478\ub978\ub9c8\ud2b8", "x": 126.394954735574, "y": 34.820622258402}, "854": {"place_name": "G\ub9c8\ud2b8 \uc8fc\ucc28\uc7a5", "x": 126.391477514081, "y": 34.8194727681651}, "855": {"place_name": "\uc624\ud1a0\ub9c8\ud2b8\uc790\ub3d9\ucc28\ub9e4\ub9e4\uc0c1\uc0ac", "x": 126.404193991652, "y": 34.8315692905559}, "856": {"place_name": "\uc8fc\uacf5\uc815\ub9c8\ud2b8", "x": 126.3945638884518, "y": 34.82041028969872}, "857": {"place_name": "\ub300\uc591\ub9c8\ud2b8", "x": 126.402708867608, "y": 34.8283206038589}, "858": {"place_name": "\ud558\ub098\ub85c\ub9c8\ud2b8 \ubaa9\ud3ec\uc810", "x": 126.429449524511, "y": 34.8190672425009}, "859": {"place_name": "119\uc2dd\uc790\uc7ac\ub9c8\ud2b8 \uc11d\ud604\uc810", "x": 126.419954798233, "y": 34.8282273792085}, "860": {"place_name": "\ubaa9\ud3ec\ub9c8\ud2b8", "x": 126.421320120617, "y": 34.8199446667113}, "861": {"place_name": "\uc815\ub9c8\ud2b8", "x": 126.426481857576, "y": 34.8473065346471}, "862": {"place_name": "\ube14\ub8e8\ube4c\ud560\uc778\ub9c8\ud2b8", "x": 126.420619250908, "y": 34.8226328933345}, "863": {"place_name": "\ud604\ub300\ub9c8\ud2b8", "x": 126.423287692229, "y": 34.8261988646158}, "864": {"place_name": "\uc0ac\ub791\ub9c8\ud2b8", "x": 126.421879161827, "y": 34.8194028822115}, "865": {"place_name": "\uc624\ud1a0\ub9c8\ud2b8\uc790\ub3d9\ucc28\ub9e4\ub9e4\uc0c1\uc0ac", "x": 126.404193991652, "y": 34.8315692905559}, "866": {"place_name": "\ubaa9\ud3ec\ub18d\ud611 \ud558\ub098\ub85c\ub9c8\ud2b8 \uc8fc\ucc28\uc7a5", "x": 126.422312394348, "y": 34.8240426114751}, "867": {"place_name": "\ub18d\ud611\ud558\ub098\ub85c\ub9c8\ud2b8 \ubaa9\ud3ec\uc810 \uc8fc\ucc28\uc7a5", "x": 126.428797869447, "y": 34.8184656589264}, "868": {"place_name": "\uc624\uc131\ub9c8\ud2b8", "x": 126.422431278942, "y": 34.826115479329}, "869": {"place_name": "\ub300\uc591\ub9c8\ud2b8", "x": 126.402708867608, "y": 34.8283206038589}, "870": {"place_name": "\ubaa9\ud3ec\ub18d\ud611 \ud558\ub098\ub85c\ub9c8\ud2b8 \uc804\uae30\ucc28\ucda9\uc804\uc18c", "x": 126.42211165583325, "y": 34.823361106007404}, "871": {"place_name": "\uc544\uc774\uc5e0\ud560\uc778\ub9c8\ud2b8", "x": 126.417484290272, "y": 34.833198471763}, "872": {"place_name": "\uc601\uc2e0\ub9c8\ud2b8", "x": 126.417250298004, "y": 34.8322743256859}, "873": {"place_name": "\ub0a8\ub3c4\ub9c8\ud2b8", "x": 126.426472910657, "y": 34.8473353369504}, "874": {"place_name": "\uc11d\ud604\ub9c8\ud2b8", "x": 126.42275178846, "y": 34.825925905102}, "875": {"place_name": "\ub18d\ud611\ud558\ub098\ub85c\ub9c8\ud2b8 \ubaa9\ud3ec\uc810 \ud6c4\ubb38", "x": 126.427721706474, "y": 34.8193493771382}, "876": {"place_name": "\ub2e4\uc774\uc18c \ud558\ub098\ub85c\ub9c8\ud2b8\ubaa9\ud3ec\uc810", "x": 126.429409854139, "y": 34.8191139289934}, "877": {"place_name": "\ubc8c\ud06c\ucee4\ud53c \ubaa9\ud3ec\ud558\ub098\ub85c\ub9c8\ud2b8\uc810", "x": 126.429459653394, "y": 34.8190249244475}, "878": {"place_name": "\uae08\ud638\ud0c0\uc774\uc5b4 \uacf5\ub2e8\ud0c0\uc774\uc5b4\ub9c8\ud2b8", "x": 126.423844753687, "y": 34.8245330247375}, "879": {"place_name": "\ud558\ub098\ub85c\ub9c8\ud2b8 \ubaa9\ud3ec\uc810", "x": 126.429449524511, "y": 34.8190672425009}, "880": {"place_name": "119\uc2dd\uc790\uc7ac\ub9c8\ud2b8 \uc11d\ud604\uc810", "x": 126.419954798233, "y": 34.8282273792085}, "881": {"place_name": "\ubaa9\ud3ec\ub9c8\ud2b8", "x": 126.421320120617, "y": 34.8199446667113}, "882": {"place_name": "\uc815\ub9c8\ud2b8", "x": 126.426481857576, "y": 34.8473065346471}, "883": {"place_name": "\ube14\ub8e8\ube4c\ud560\uc778\ub9c8\ud2b8", "x": 126.420619250908, "y": 34.8226328933345}, "884": {"place_name": "\ud604\ub300\ub9c8\ud2b8", "x": 126.423287692229, "y": 34.8261988646158}, "885": {"place_name": "\uc0ac\ub791\ub9c8\ud2b8", "x": 126.421879161827, "y": 34.8194028822115}, "886": {"place_name": "\ubaa9\ud3ec\ub18d\ud611 \ud558\ub098\ub85c\ub9c8\ud2b8 \uc8fc\ucc28\uc7a5", "x": 126.422312394348, "y": 34.8240426114751}, "887": {"place_name": "\ub18d\ud611\ud558\ub098\ub85c\ub9c8\ud2b8 \ubaa9\ud3ec\uc810 \uc8fc\ucc28\uc7a5", "x": 126.428797869447, "y": 34.8184656589264}, "888": {"place_name": "\uc624\uc131\ub9c8\ud2b8", "x": 126.422431278942, "y": 34.826115479329}, "889": {"place_name": "\ubaa9\ud3ec\ub18d\ud611 \ud558\ub098\ub85c\ub9c8\ud2b8 \uc804\uae30\ucc28\ucda9\uc804\uc18c", "x": 126.42211165583325, "y": 34.823361106007404}, "890": {"place_name": "\uc544\uc774\uc5e0\ud560\uc778\ub9c8\ud2b8", "x": 126.417484290272, "y": 34.833198471763}, "891": {"place_name": "\uc601\uc2e0\ub9c8\ud2b8", "x": 126.417250298004, "y": 34.8322743256859}, "892": {"place_name": "\ub0a8\ub3c4\ub9c8\ud2b8", "x": 126.426472910657, "y": 34.8473353369504}, "893": {"place_name": "\uc11d\ud604\ub9c8\ud2b8", "x": 126.42275178846, "y": 34.825925905102}, "894": {"place_name": "\ub18d\ud611\ud558\ub098\ub85c\ub9c8\ud2b8 \ubaa9\ud3ec\uc810 \ud6c4\ubb38", "x": 126.427721706474, "y": 34.8193493771382}, "895": {"place_name": "\ub2e4\uc774\uc18c \ud558\ub098\ub85c\ub9c8\ud2b8\ubaa9\ud3ec\uc810", "x": 126.429409854139, "y": 34.8191139289934}, "896": {"place_name": "\ubc8c\ud06c\ucee4\ud53c \ubaa9\ud3ec\ud558\ub098\ub85c\ub9c8\ud2b8\uc810", "x": 126.429459653394, "y": 34.8190249244475}, "897": {"place_name": "\uae08\ud638\ud0c0\uc774\uc5b4 \uacf5\ub2e8\ud0c0\uc774\uc5b4\ub9c8\ud2b8", "x": 126.423844753687, "y": 34.8245330247375}, "898": {"place_name": "\uc815\ub9c8\ud2b8", "x": 126.426481857576, "y": 34.8473065346471}, "899": {"place_name": "\ub0a8\ub3c4\ub9c8\ud2b8", "x": 126.426472910657, "y": 34.8473353369504}, "900": {"place_name": "\ud558\ub098\ub85c\ub9c8\ud2b8 \ubaa9\ud3ec\uc810", "x": 126.429449524511, "y": 34.8190672425009}, "901": {"place_name": "\ud558\ub098\ub85c\ub9c8\ud2b8 \ub0a8\uc545\uc810", "x": 126.46060788308398, "y": 34.81372886954624}, "902": {"place_name": "\ub86f\ub370\uc288\ud37c\ud504\ub808\uc2dc \ubaa9\ud3ec\uc625\uc554\uc810", "x": 126.43807645078769, "y": 34.807670478175325}, "903": {"place_name": "\ud143\ubc2d \ub0a8\uc545\uc810", "x": 126.458648637655, "y": 34.8140014046365}, "904": {"place_name": "\ubaa8\uc544\ud560\uc778\ub9c8\ud2b8", "x": 126.459208345795, "y": 34.8079609249324}, "905": {"place_name": "\uc54c\uc774\uc368\ubc0b", "x": 126.45865111236857, "y": 34.813957247194146}, "906": {"place_name": "\uc7a5\ub09c\uac10\ud560\uc778\ub9c8\ud2b8", "x": 126.429422573895, "y": 34.8077564053829}, "907": {"place_name": "\uc138\uc885 \ucca0\ubb3c\uc548\uc804\uacf5\uad6c\ud560\uc778\ub9c8\ud2b8", "x": 126.4598938275464, "y": 34.807419524908056}, "908": {"place_name": "\uc625\uc554\uc8fc\uacf52\ucc28\ub9c8\ud2b8", "x": 126.45063173132, "y": 34.8118814445299}, "909": {"place_name": "\ud615\uc81c\ub09a\uc2dc\ud560\uc778\ub9c8\ud2b8", "x": 126.430201688632, "y": 34.808246810003}, "910": {"place_name": "\uc640\uc774\ub9c8\ud2b8 \ubaa9\ud3ec\uc810", "x": 126.445572961027, "y": 34.8100340734779}, "911": {"place_name": "SM\ub9c8\ud2b8 \ub0a8\uc545\uc810", "x": 126.459843715627, "y": 34.8084000234414}, "912": {"place_name": "\uc544\ub378\ub9ac\uc6c0\ub9c8\ud2b8", "x": 126.446816325891, "y": 34.8064882271539}, "913": {"place_name": "\ub9c8\ud2b8\ud074\ub85c\ubc84", "x": 126.430392997553, "y": 34.803949846514}, "914": {"place_name": "\ud604\ub300\uc544\uc774\ud30c\ud06c\ub9c8\ud2b8", "x": 126.456393597731, "y": 34.8118820821625}, "915": {"place_name": "\ud604\ub300\ud560\uc778\ub9c8\ud2b8", "x": 126.428245717538, "y": 34.8066259390355}, "916": {"place_name": "\uace8\ub4dc\ud074\ub798\uc2a4\ub9c8\ud2b8", "x": 126.448355656451, "y": 34.8070540812872}, "917": {"place_name": "\ud589\ubcf5\ud55c\ub9c8\ud2b8", "x": 126.440570389219, "y": 34.8096073523336}, "918": {"place_name": "\uc601\uc554\ub9c8\ud2b8\uc608\ud5a5", "x": 126.439276376552, "y": 34.8089668132926}, "919": {"place_name": "\uac04\ud310\uad11\uace0\ub9c8\ud2b8", "x": 126.428883747896, "y": 34.8136237676675}, "920": {"place_name": "\ubd80\uc601\ub098\uc774\uc2a4\ub9c8\ud2b8", "x": 126.430668915233, "y": 34.8032372312197}, "921": {"place_name": "\uc625\uc554\ucd95\uc0b0\ub9c8\ud2b8", "x": 126.45016785583, "y": 34.8112952441969}, "922": {"place_name": "\uc81c\uc77c\ud558\uc774\ube4c\ub9c8\ud2b8", "x": 126.43153504381294, "y": 34.806169918624455}, "923": {"place_name": "\ub18d\ud611\ud558\ub098\ub85c\ub9c8\ud2b8 \ubaa9\ud3ec\uc810 \uc8fc\ucc28\uc7a5", "x": 126.428797869447, "y": 34.8184656589264}, "924": {"place_name": "\uad7f\ubaa8\ub2dd \ud560\uc778\ub9c8\ud2b8", "x": 126.433342617492, "y": 34.8053697959854}, "925": {"place_name": "\uc6b0\ub9ac\ub9c8\ud2b8", "x": 126.429421193011, "y": 34.8084324461194}, "926": {"place_name": "\ud558\ub098\ub85c\ub9c8\ud2b8 \ub0a8\uc545\uc810 \uc8fc\ucc28\uc7a5", "x": 126.460652687028, "y": 34.8138976294062}, "927": {"place_name": "\uc18c\ubcf4\ub8e8\uce58\ud0a8\ub9c8\ud2b8 \ub0a8\uc545\uc810", "x": 126.459776984922, "y": 34.8125966342319}, "928": {"place_name": "\ud6a8\uc131\ucd95\uc0b0\ub9c8\ud2b8 \uc625\uc554\uc810", "x": 126.43776662034858, "y": 34.80791242422389}, "929": {"place_name": "\ub18d\ud611\ud558\ub098\ub85c\ub9c8\ud2b8 \ubaa9\ud3ec\uc810 \ud6c4\ubb38", "x": 126.427721706474, "y": 34.8193493771382}, "930": {"place_name": "\ub2e4\uc774\uc18c \ud558\ub098\ub85c\ub9c8\ud2b8\ubaa9\ud3ec\uc810", "x": 126.429409854139, "y": 34.8191139289934}, "931": {"place_name": "CU \ud558\ub2f9\ubd80\uc601\uc810", "x": 126.430134676449, "y": 34.803375348676}, "932": {"place_name": "\ubcf5\uad8c\ud310\ub9e4\uc810 \uc8fc\uacf5\ub9c8\ud2b8\uc810", "x": 126.45060108264, "y": 34.811888517331}, "933": {"place_name": "\ubc8c\ud06c\ucee4\ud53c \ubaa9\ud3ec\ud558\ub098\ub85c\ub9c8\ud2b8\uc810", "x": 126.429459653394, "y": 34.8190249244475}, "934": {"place_name": "\ub098\ub4e4\uac00\uac8c \uc8fc\uacf52\ucc28\ub9c8\ud2b8", "x": 126.4506109246, "y": 34.8118876603699}, "935": {"place_name": "\uc0bc\ubbf8\uc720\ud1b5 \uc9c4\ub85c\ub9c8\ud2b8", "x": 126.44789058774089, "y": 34.80796418631441}, "936": {"place_name": "\ub098\ub4e4\uac00\uac8c \uc81c\uc77c\ud558\uc774\ube4c\ub9c8\ud2b8", "x": 126.431711101048, "y": 34.8063131615916}, "937": {"place_name": "\ub86f\ub370\ub9c8\ud2b8 \ub0a8\uc545\uc810", "x": 126.465642224698, "y": 34.802686418948035}, "938": {"place_name": "\ud558\ub098\ub85c\ub9c8\ud2b8 \ub0a8\uc545\uc810", "x": 126.46060788308398, "y": 34.81372886954624}, "939": {"place_name": "\ud143\ubc2d \ub0a8\uc545\uc810", "x": 126.458648637655, "y": 34.8140014046365}, "940": {"place_name": "\uc9c0\uc5e0\ub9c8\ud2b8", "x": 126.466390010317, "y": 34.8094204430272}, "941": {"place_name": "\ubaa8\uc544\ud560\uc778\ub9c8\ud2b8", "x": 126.459208345795, "y": 34.8079609249324}, "942": {"place_name": "\uc54c\uc774\uc368\ubc0b", "x": 126.45865111236857, "y": 34.813957247194146}, "943": {"place_name": "ABC\ub9c8\ud2b8 ST\ub0a8\uc545\ub86f\ub370\uc544\uc6b8\ub81b\uc810", "x": 126.46425316030883, "y": 34.80321123582573}, "944": {"place_name": "\uc138\uc885 \ucca0\ubb3c\uc548\uc804\uacf5\uad6c\ud560\uc778\ub9c8\ud2b8", "x": 126.4598938275464, "y": 34.807419524908056}, "945": {"place_name": "\uc625\uc554\uc8fc\uacf52\ucc28\ub9c8\ud2b8", "x": 126.45063173132, "y": 34.8118814445299}, "946": {"place_name": "\ud55c\ube5b\ucca0\ubb3c\ub9c8\ud2b8 \ub0a8\uc545\uc810", "x": 126.46507545098589, "y": 34.81412717837063}, "947": {"place_name": "\uc640\uc774\ub9c8\ud2b8 \ubaa9\ud3ec\uc810", "x": 126.445572961027, "y": 34.8100340734779}, "948": {"place_name": "\ub9d8\ub9c8\ud2b8 \ub0a8\uc545\uc810", "x": 126.472563556364, "y": 34.8118495840007}, "949": {"place_name": "SM\ub9c8\ud2b8 \ub0a8\uc545\uc810", "x": 126.459843715627, "y": 34.8084000234414}, "950": {"place_name": "\uadfc\ud654\ud50c\ub7ec\uc2a4\ub9c8\ud2b8", "x": 126.471867799392, "y": 34.8073278565423}, "951": {"place_name": "\uc544\ub378\ub9ac\uc6c0\ub9c8\ud2b8", "x": 126.446816325891, "y": 34.8064882271539}, "952": {"place_name": "\ud604\ub300\uc544\uc774\ud30c\ud06c\ub9c8\ud2b8", "x": 126.456393597731, "y": 34.8118820821625}, "953": {"place_name": "\ub0a8\uc545\ubd80\uc601\ub9c8\ud2b8", "x": 126.472641551327, "y": 34.8121302568193}, "954": {"place_name": "\ud55c\uc6b0\ub9ac\ub9c8\ud2b8\uace0 \ub0a8\uc545\uc810", "x": 126.475179262321, "y": 34.8098985494958}, "955": {"place_name": "\uace8\ub4dc\ud074\ub798\uc2a4\ub9c8\ud2b8", "x": 126.448355656451, "y": 34.8070540812872}, "956": {"place_name": "\uc625\uc554\ucd95\uc0b0\ub9c8\ud2b8", "x": 126.45016785583, "y": 34.8112952441969}, "957": {"place_name": "\ub0a8\uc545\ub9ac\uc820\uc2dc\ube4c\ub9c8\ud2b8", "x": 126.466939934425, "y": 34.8102377170507}, "958": {"place_name": "\uc544\uc774\uc9c0\uc5d0\uc774\ub9c8\ud2b8 \uc720\ud0d1\uc810", "x": 126.467776836232, "y": 34.8140173353809}, "959": {"place_name": "\ud558\ub098\ub85c\ub9c8\ud2b8 \ub0a8\uc545\uc810 \uc8fc\ucc28\uc7a5", "x": 126.460652687028, "y": 34.8138976294062}, "960": {"place_name": "\uc18c\ubcf4\ub8e8\uce58\ud0a8\ub9c8\ud2b8 \ub0a8\uc545\uc810", "x": 126.459776984922, "y": 34.8125966342319}, "961": {"place_name": "\ub2e4\uc774\uc18c \ub86f\ub370\ub9c8\ud2b8\ub0a8\uc545\uc810", "x": 126.465720514294, "y": 34.8027471564126}, "962": {"place_name": "\ud1a0\uc774\uc800\ub7ec\uc2a4 \ub86f\ub370\ub9c8\ud2b8\ub0a8\uc545\uc810", "x": 126.465659854401, "y": 34.8026639613805}, "963": {"place_name": "\ub358\ud0a8 \ubb34\uc548\ub0a8\uc545\ub86f\ub370\ub9c8\ud2b8\uc810", "x": 126.46535031604246, "y": 34.80270677045246}, "964": {"place_name": "\ub124\uc774\ucc98\ub9ac\ud37c\ube14\ub9ad \ub86f\ub370\ub9c8\ud2b8\ub0a8\uc545", "x": 126.46571163837183, "y": 34.80276784962234}, "965": {"place_name": "\ubbf8\uc0e4 \ub86f\ub370\ub9c8\ud2b8\ub0a8\uc545\uc810", "x": 126.464710365746, "y": 34.8034854701669}, "966": {"place_name": "\ubcf5\uad8c\ud310\ub9e4\uc810 \uc8fc\uacf5\ub9c8\ud2b8\uc810", "x": 126.45060108264, "y": 34.811888517331}, "967": {"place_name": "\ubabb\ub41c\uace0\uc591\uc774 \ubaa9\ud3ec\ub0a8\uc545\ub86f\ub370\ub9c8\ud2b8\uc810", "x": 126.465744758757, "y": 34.8027157138828}, "968": {"place_name": "\ud640\ub9ac\uce74\ud640\ub9ac\uce74 \ub86f\ub370\ub9c8\ud2b8\ub0a8\uc545\uc810", "x": 126.46576076644271, "y": 34.802775276489626}, "969": {"place_name": "\ub354\uc0d8 \ub86f\ub370\ub9c8\ud2b8\ub0a8\uc545\uc810", "x": 126.46487076528197, "y": 34.803523132936576}, "970": {"place_name": "\ud1a0\ub2c8\ubaa8\ub9ac \ub86f\ub370\ub9c8\ud2b8\ub0a8\uc545\uc810", "x": 126.46572031654468, "y": 34.802777803110494}, "971": {"place_name": "\uc774\ub514\uc57c\ucee4\ud53c \ubb34\uc548\ub0a8\uc545\ub86f\ub370\ub9c8\ud2b8\uc810", "x": 126.464710365746, "y": 34.8034854701669}, "972": {"place_name": "\ub86f\ub370ATM \ub86f\ub370\ub9c8\ud2b8 \ub0a8\uc5451\uce35 1", "x": 126.46564550799805, "y": 34.80285499497654}, "973": {"place_name": "\ub098\ub4e4\uac00\uac8c \uc8fc\uacf52\ucc28\ub9c8\ud2b8", "x": 126.4506109246, "y": 34.8118876603699}, "974": {"place_name": "\uc0bc\ubbf8\uc720\ud1b5 \uc9c4\ub85c\ub9c8\ud2b8", "x": 126.44789058774089, "y": 34.80796418631441}, "975": {"place_name": "\uc624\uac00\ub2e4 \ub86f\ub370\ub9c8\ud2b8\ubb34\uc548\ub0a8\uc545\uc810", "x": 126.465729694905, "y": 34.802848604103936}, "976": {"place_name": "\ubbfc\ud303ATM \ub86f\ub370\ub9c8\ud2b8\ub0a8\uc545\uc810", "x": 126.464710365746, "y": 34.8034854701669}, "977": {"place_name": "\ucf5c\ub9ac\uc62c\ub9ac \ub86f\ub370\ub9c8\ud2b8\ub0a8\uc545\uc810", "x": 126.464709278796, "y": 34.8034845639871}, "978": {"place_name": "\ube60\ubba4 \ub86f\ub370\ub9c8\ud2b8 \ub0a8\uc545\uc810", "x": 126.464710365746, "y": 34.8034854701669}, "979": {"place_name": "\uc5d4\ud504\ub77c\ub2c8 \ub86f\ub370\ub9c8\ud2b8\ub0a8\uc545\uc810", "x": 126.464714433842, "y": 34.8035323608001}, "980": {"place_name": "\ub514\uc5b4\ubca0\uc774\ube44 \ub86f\ub370\ub9c8\ud2b8\ub0a8\uc545\uc810", "x": 126.46564922758, "y": 34.8029559679938}, "981": {"place_name": "\ud558\ub098\ub85c\ub9c8\ud2b8 \ubaa9\ud3ec\uc810", "x": 126.429449524511, "y": 34.8190672425009}, "982": {"place_name": "\ub18d\ud611\ud558\ub098\ub85c\ub9c8\ud2b8 \ubaa9\ud3ec\uc810 \uc8fc\ucc28\uc7a5", "x": 126.428797869447, "y": 34.8184656589264}, "983": {"place_name": "\ub18d\ud611\ud558\ub098\ub85c\ub9c8\ud2b8 \ubaa9\ud3ec\uc810 \ud6c4\ubb38", "x": 126.427721706474, "y": 34.8193493771382}, "984": {"place_name": "\ub2e4\uc774\uc18c \ud558\ub098\ub85c\ub9c8\ud2b8\ubaa9\ud3ec\uc810", "x": 126.429409854139, "y": 34.8191139289934}, "985": {"place_name": "\ubc8c\ud06c\ucee4\ud53c \ubaa9\ud3ec\ud558\ub098\ub85c\ub9c8\ud2b8\uc810", "x": 126.429459653394, "y": 34.8190249244475}, "986": {"place_name": "\ub86f\ub370\ub9c8\ud2b8 \ub0a8\uc545\uc810", "x": 126.465642224698, "y": 34.802686418948035}, "987": {"place_name": "\ud558\ub098\ub85c\ub9c8\ud2b8 \ub0a8\uc545\uc810", "x": 126.46060788308398, "y": 34.81372886954624}, "988": {"place_name": "\uc77c\ub85c\ub18d\ud611\ud558\ub098\ub85c\ub9c8\ud2b8 \ubcf8\uc810", "x": 126.49407402139235, "y": 34.84891169035287}, "989": {"place_name": "\uc774\ub9c8\ud2b8\uc5d0\ube0c\ub9ac\ub370\uc774 \ubb34\uc548\uc624\ub8e1\uc810", "x": 126.48399197652, "y": 34.8050515559448}, "990": {"place_name": "\ub86f\ub370\uc288\ud37c\ud504\ub808\uc2dc \uc624\ub8e1\uc810", "x": 126.484538160704, "y": 34.8080726572045}, "991": {"place_name": "\uc9c0\uc5e0\ub9c8\ud2b8", "x": 126.466390010317, "y": 34.8094204430272}, "992": {"place_name": "\ubaa8\uc544\ud560\uc778\ub9c8\ud2b8", "x": 126.459208345795, "y": 34.8079609249324}, "993": {"place_name": "ABC\ub9c8\ud2b8 ST\ub0a8\uc545\ub86f\ub370\uc544\uc6b8\ub81b\uc810", "x": 126.46425316030883, "y": 34.80321123582573}, "994": {"place_name": "\uc138\uc885 \ucca0\ubb3c\uc548\uc804\uacf5\uad6c\ud560\uc778\ub9c8\ud2b8", "x": 126.4598938275464, "y": 34.807419524908056}, "995": {"place_name": "\ud55c\ube5b\ucca0\ubb3c\ub9c8\ud2b8 \ub0a8\uc545\uc810", "x": 126.46507545098589, "y": 34.81412717837063}, "996": {"place_name": "\ub9d8\ub9c8\ud2b8 \ub0a8\uc545\uc810", "x": 126.472563556364, "y": 34.8118495840007}, "997": {"place_name": "SM\ub9c8\ud2b8 \ub0a8\uc545\uc810", "x": 126.459843715627, "y": 34.8084000234414}, "998": {"place_name": "\uadfc\ud654\ud50c\ub7ec\uc2a4\ub9c8\ud2b8", "x": 126.471867799392, "y": 34.8073278565423}, "999": {"place_name": "\uc77c\ub85c\ub9c8\ud2b8", "x": 126.49502070605917, "y": 34.84840904129018}, "1000": {"place_name": "\ud48d\uacbd\ub9c8\ud2b8", "x": 126.480079483567, "y": 34.8104712407613}, "1001": {"place_name": "\ub0a8\uc545\ubd80\uc601\ub9c8\ud2b8", "x": 126.472641551327, "y": 34.8121302568193}, "1002": {"place_name": "\ud55c\uc6b0\ub9ac\ub9c8\ud2b8\uace0 \ub0a8\uc545\uc810", "x": 126.475179262321, "y": 34.8098985494958}, "1003": {"place_name": "\uc601\ud654\ub5a1\ubc29\uc544\uac04,\uc601\ud654\ub9c8\ud2b8", "x": 126.495471583286, "y": 34.8478069785742}, "1004": {"place_name": "\uc0ac\ub8cc\ud560\uc778\ub9c8\ud2b8", "x": 126.495704663355, "y": 34.8477763964072}, "1005": {"place_name": "\ub0a8\uc545\ub9ac\uc820\uc2dc\ube4c\ub9c8\ud2b8", "x": 126.466939934425, "y": 34.8102377170507}, "1006": {"place_name": "\uc544\uc774\uc9c0\uc5d0\uc774\ub9c8\ud2b8 \uc720\ud0d1\uc810", "x": 126.467776836232, "y": 34.8140173353809}, "1007": {"place_name": "\ud558\ub098\ub85c\ub9c8\ud2b8 \ub0a8\uc545\uc810 \uc8fc\ucc28\uc7a5", "x": 126.460652687028, "y": 34.8138976294062}, "1008": {"place_name": "\uc77c\ub85c\ub18d\ud611\ud558\ub098\ub85c\ub9c8\ud2b8 \ubcf8\uc810 \uc8fc\ucc28\uc7a5", "x": 126.494296012817, "y": 34.849085681135}, "1009": {"place_name": "\uc77c\ub85c\uc0dd\ud65c\ub9c8\ud2b8", "x": 126.494634551317, "y": 34.8493331687096}, "1010": {"place_name": "\uc18c\ubcf4\ub8e8\uce58\ud0a8\ub9c8\ud2b8 \ub0a8\uc545\uc810", "x": 126.459776984922, "y": 34.8125966342319}, "1011": {"place_name": "\ub2e4\uc774\uc18c \ub86f\ub370\ub9c8\ud2b8\ub0a8\uc545\uc810", "x": 126.465720514294, "y": 34.8027471564126}, "1012": {"place_name": "CU \ubb34\uc548\uc77c\ub85c\uc810", "x": 126.49084804317913, "y": 34.85075419747279}, "1013": {"place_name": "\ud1a0\uc774\uc800\ub7ec\uc2a4 \ub86f\ub370\ub9c8\ud2b8\ub0a8\uc545\uc810", "x": 126.465659854401, "y": 34.8026639613805}, "1014": {"place_name": "\ub358\ud0a8 \ubb34\uc548\ub0a8\uc545\ub86f\ub370\ub9c8\ud2b8\uc810", "x": 126.46535031604246, "y": 34.80270677045246}, "1015": {"place_name": "\ub124\uc774\ucc98\ub9ac\ud37c\ube14\ub9ad \ub86f\ub370\ub9c8\ud2b8\ub0a8\uc545", "x": 126.46571163837183, "y": 34.80276784962234}, "1016": {"place_name": "\ubbf8\uc0e4 \ub86f\ub370\ub9c8\ud2b8\ub0a8\uc545\uc810", "x": 126.464710365746, "y": 34.8034854701669}, "1017": {"place_name": "\ubabb\ub41c\uace0\uc591\uc774 \ubaa9\ud3ec\ub0a8\uc545\ub86f\ub370\ub9c8\ud2b8\uc810", "x": 126.465744758757, "y": 34.8027157138828}, "1018": {"place_name": "\ud640\ub9ac\uce74\ud640\ub9ac\uce74 \ub86f\ub370\ub9c8\ud2b8\ub0a8\uc545\uc810", "x": 126.46576076644271, "y": 34.802775276489626}, "1019": {"place_name": "\ub354\uc0d8 \ub86f\ub370\ub9c8\ud2b8\ub0a8\uc545\uc810", "x": 126.46487076528197, "y": 34.803523132936576}, "1020": {"place_name": "\ud1a0\ub2c8\ubaa8\ub9ac \ub86f\ub370\ub9c8\ud2b8\ub0a8\uc545\uc810", "x": 126.46572031654468, "y": 34.802777803110494}, "1021": {"place_name": "\uc774\ub514\uc57c\ucee4\ud53c \ubb34\uc548\ub0a8\uc545\ub86f\ub370\ub9c8\ud2b8\uc810", "x": 126.464710365746, "y": 34.8034854701669}, "1022": {"place_name": "\ub86f\ub370ATM \ub86f\ub370\ub9c8\ud2b8 \ub0a8\uc5451\uce35 1", "x": 126.46564550799805, "y": 34.80285499497654}, "1023": {"place_name": "\uc624\uac00\ub2e4 \ub86f\ub370\ub9c8\ud2b8\ubb34\uc548\ub0a8\uc545\uc810", "x": 126.465729694905, "y": 34.802848604103936}, "1024": {"place_name": "\ubbfc\ud303ATM \ub86f\ub370\ub9c8\ud2b8\ub0a8\uc545\uc810", "x": 126.464710365746, "y": 34.8034854701669}, "1025": {"place_name": "\ud30c\ub9ac\ubc14\uac8c\ub728 \uc77c\ub85c\ub18d\ud611\ud558\ub098\ub85c\ub9c8\ud2b8", "x": 126.494095072584, "y": 34.8490451841723}, "1026": {"place_name": "\ucf5c\ub9ac\uc62c\ub9ac \ub86f\ub370\ub9c8\ud2b8\ub0a8\uc545\uc810", "x": 126.464709278796, "y": 34.8034845639871}, "1027": {"place_name": "\ube60\ubba4 \ub86f\ub370\ub9c8\ud2b8 \ub0a8\uc545\uc810", "x": 126.464710365746, "y": 34.8034854701669}, "1028": {"place_name": "\uc5d4\ud504\ub77c\ub2c8 \ub86f\ub370\ub9c8\ud2b8\ub0a8\uc545\uc810", "x": 126.464714433842, "y": 34.8035323608001}, "1029": {"place_name": "\ub514\uc5b4\ubca0\uc774\ube44 \ub86f\ub370\ub9c8\ud2b8\ub0a8\uc545\uc810", "x": 126.46564922758, "y": 34.8029559679938}, "1030": {"place_name": "\uc77c\ub85c\ub18d\ud611\ud558\ub098\ub85c\ub9c8\ud2b8 \ubcf8\uc810", "x": 126.49407402139235, "y": 34.84891169035287}, "1031": {"place_name": "\uc77c\ub85c\ub9c8\ud2b8", "x": 126.49502070605917, "y": 34.84840904129018}, "1032": {"place_name": "\uc601\ud654\ub5a1\ubc29\uc544\uac04,\uc601\ud654\ub9c8\ud2b8", "x": 126.495471583286, "y": 34.8478069785742}, "1033": {"place_name": "\uc0ac\ub8cc\ud560\uc778\ub9c8\ud2b8", "x": 126.495704663355, "y": 34.8477763964072}, "1034": {"place_name": "\uc77c\ub85c\ub18d\ud611\ud558\ub098\ub85c\ub9c8\ud2b8 \ubcf8\uc810 \uc8fc\ucc28\uc7a5", "x": 126.494296012817, "y": 34.849085681135}, "1035": {"place_name": "\uc77c\ub85c\uc0dd\ud65c\ub9c8\ud2b8", "x": 126.494634551317, "y": 34.8493331687096}, "1036": {"place_name": "CU \ubb34\uc548\uc77c\ub85c\uc810", "x": 126.49084804317913, "y": 34.85075419747279}, "1037": {"place_name": "\ud30c\ub9ac\ubc14\uac8c\ub728 \uc77c\ub85c\ub18d\ud611\ud558\ub098\ub85c\ub9c8\ud2b8", "x": 126.494095072584, "y": 34.8490451841723}, "1038": {"place_name": "\uc555\ud574\ub18d\ud611\ud558\ub098\ub85c\ub9c8\ud2b8", "x": 126.3133543942065, "y": 34.86594877333986}, "1039": {"place_name": "\uc6b4\ub0a8\ub18d\ud611\ud558\ub098\ub85c\ub9c8\ud2b8", "x": 126.340378078204, "y": 34.9604471546931}, "1040": {"place_name": "\uc18c\ub098\ubb34\uc232\ub9c8\ud2b8", "x": 126.383151734374, "y": 34.9689338947431}, "1041": {"place_name": "\uc2e0\uc6d4\ub9c8\ud2b8", "x": 126.29816400520909, "y": 34.96133725514478}, "1042": {"place_name": "\ud669\uae08\ub18d\uc790\uc7ac\ud560\uc778\ub9c8\ud2b8", "x": 126.34208693856334, "y": 34.961300104828574}, "1043": {"place_name": "\uad11\uc9c4\ub9c8\ud2b8", "x": 126.34293762088937, "y": 34.96158052891258}, "1044": {"place_name": "\uccad\uc6b4\ub9c8\ud2b8", "x": 126.342073656341, "y": 34.9613180602493}, "1045": {"place_name": "\uc6b4\ub0a8\uc288\ud37c\ub9c8\ud2b8", "x": 126.339491490668, "y": 34.960550500515}, "1046": {"place_name": "\ubb34\uc548\ub18d\ud611\ud558\ub098\ub85c\ub9c8\ud2b8", "x": 126.477723437656, "y": 34.9908607785063}, "1047": {"place_name": "\ub86f\ub370\uc288\ud37c\ud504\ub808\uc2dc \ubb34\uc548\uc810", "x": 126.473142725765, "y": 34.9864458966924}, "1048": {"place_name": "\uccad\uacc4\ub18d\ud611\ud558\ub098\ub85c\ub9c8\ud2b8", "x": 126.4296372459778, "y": 34.90907803056085}, "1049": {"place_name": "\ubaa9\ud3ec\ubb34\uc548\uc2e0\uc548\ucd95\ud611 \ud558\ub098\ub85c\ub9c8\ud2b8 \ubb34\uc548\uc810", "x": 126.47577175763, "y": 34.9932446072738}, "1050": {"place_name": "\ubabd\ud0c4\ub18d\ud611\ud558\ub098\ub85c\ub9c8\ud2b8", "x": 126.503447768194, "y": 34.9331074977228}, "1051": {"place_name": "\uc640\uc774\uc2dd\uc790\uc7ac\ub9c8\ud2b8 \ubb34\uc548\uc810", "x": 126.47367804951757, "y": 34.98665553410143}, "1052": {"place_name": "\uc11c\ud574\uc548\ub09a\uc2dc\ud560\uc778\ub9c8\ud2b8", "x": 126.478131031239, "y": 34.9935990957562}, "1053": {"place_name": "\uc11c\uc6b8\ub09a\uc2dc\ub9c8\ud2b8", "x": 126.47132134477, "y": 34.9937715395012}, "1054": {"place_name": "\uc544\uc2dc\uc544\ub9c8\ud2b8", "x": 126.472007190417, "y": 34.9879462554017}, "1055": {"place_name": "\uc18c\ub098\ubb34\uc232\ub9c8\ud2b8", "x": 126.383151734374, "y": 34.9689338947431}, "1056": {"place_name": "\ud30c\uad70\uad50\ub9c8\ud2b8", "x": 126.50276907117, "y": 34.8917455872746}, "1057": {"place_name": "\uc740\uc131\ucd95\uc0b0\ub9c8\ud2b8", "x": 126.475767769181, "y": 34.9888882602886}, "1058": {"place_name": "\uc8fc\uacf5\ub9c8\ud2b8", "x": 126.47359206343, "y": 34.9929016682554}, "1059": {"place_name": "\ubb34\uc548\ub099\uc9c0\ub9c8\ud2b8", "x": 126.390576904306, "y": 34.9276614371692}, "1060": {"place_name": "\uadf8\ub9b0\ub9c8\ud2b8", "x": 126.475822237168, "y": 34.9894500502497}, "1061": {"place_name": "\ud574\ud0dc\ub9c8\ud2b8", "x": 126.476347266296, "y": 34.9895604805372}, "1062": {"place_name": "\uc900\ub9c8\ud2b8", "x": 126.428769408745, "y": 34.9079913954717}, "1063": {"place_name": "\uc2b9\ub2ec\ub9c8\ud2b8", "x": 126.430682676681, "y": 34.9098031361385}, "1064": {"place_name": "A\ub9c8\ud2b8", "x": 126.47082792175259, "y": 34.98193888230922}, "1065": {"place_name": "\uc774\ucc9c\ub9c8\ud2b8", "x": 126.480375072852, "y": 34.990699093058}, "1066": {"place_name": "\ud55c\uc544\ub984\ub9c8\ud2b8", "x": 126.488087942584, "y": 34.9924877323757}, "1067": {"place_name": "\ud0dc\ubd09\uc885\ud569\uc758\ub958\ub9c8\ud2b8", "x": 126.473490139353, "y": 34.9876083712022}, "1068": {"place_name": "\uc740\ud61c\ub9c8\ud2b8", "x": 126.48924798917717, "y": 34.99141277422802}, "1069": {"place_name": "\uc7a5\uc218\uace0\uae30\ub9c8\ud2b8", "x": 126.473319700574, "y": 34.9875427331716}, "1070": {"place_name": "\uccad\uacc4\uc138\ud0c1\ub9c8\ud2b8", "x": 126.429569157727, "y": 34.9081646115294}, "1071": {"place_name": "\ud328\ubc00\ub9ac\ub9c8\ud2b8", "x": 126.474097191382, "y": 34.9879066522657}, "1072": {"place_name": "CU \ubb34\uc548\uc911\uc559\uc810", "x": 126.474101572281, "y": 34.9879066712418}, "1073": {"place_name": "CU \ubaa9\ud3ec\ub300\ud558\ub298\uc810", "x": 126.433820728256, "y": 34.9104631850771}, "1074": {"place_name": "\ub274\ube45\ub9c8\ud2b8", "x": 126.479181268114, "y": 34.9889597377412}, "1075": {"place_name": "\ubc31\ub828\ud5e4\uc5b4\uc544\ud2b8", "x": 126.46977726762, "y": 34.9872641139867}}}